<?xml version="1.0" encoding="UTF-8"?>
<gpx
version="1.1"
creator="Created by My Tracks from Daniel Qin"
xmlns="http://www.topografix.com/GPX/1/1"
xmlns:topografix="http://www.topografix.com/GPX/Private/TopoGrafix/0/1"
xmlns:xsi="http://www.w3.org/2001/XMLSchema-instance"
xsi:schemaLocation="http://www.topografix.com/GPX/1/1 http://www.topografix.com/GPX/1/1/gpx.xsd http://www.topografix.com/GPX/Private/TopoGrafix/0/1 http://www.topografix.com/GPX/Private/TopoGrafix/0/1/topografix.xsd">
<metadata>
<name><![CDATA[Ruta del reciclador Wilbert]]></name>
<desc><![CDATA[]]></desc>
</metadata>
<trk>
<name><![CDATA[Ruta del reciclador Wilbert]]></name>
<desc><![CDATA[]]></desc>
<type><![CDATA[10]]></type>
<extensions><topografix:color>3A73E2</topografix:color></extensions>
<trkseg>
<trkpt lat="-13.537096" lon="-71.903408">
<ele>3302.9</ele>
<time>2025-02-06T14:41:27.515Z</time>
</trkpt>
<trkpt lat="-13.537096" lon="-71.903408">
<ele>3302.9</ele>
<time>2025-02-06T14:41:28.516Z</time>
</trkpt>
<trkpt lat="-13.537097" lon="-71.903408">
<ele>3302.9</ele>
<time>2025-02-06T14:41:29.516Z</time>
</trkpt>
<trkpt lat="-13.537097" lon="-71.903409">
<ele>3302.9</ele>
<time>2025-02-06T14:41:30.516Z</time>
</trkpt>
<trkpt lat="-13.537096" lon="-71.903408">
<ele>3302.9</ele>
<time>2025-02-06T14:41:35.516Z</time>
</trkpt>
<trkpt lat="-13.537114" lon="-71.903353">
<ele>3302.9</ele>
<time>2025-02-06T14:41:38.347Z</time>
</trkpt>
<trkpt lat="-13.537121" lon="-71.90335">
<ele>3302.8</ele>
<time>2025-02-06T14:41:41.516Z</time>
</trkpt>
<trkpt lat="-13.537132" lon="-71.903362">
<ele>3302.8</ele>
<time>2025-02-06T14:41:44.516Z</time>
</trkpt>
<trkpt lat="-13.537163" lon="-71.903346">
<ele>3302.6</ele>
<time>2025-02-06T14:41:47.587Z</time>
</trkpt>
<trkpt lat="-13.537239" lon="-71.903385">
<ele>3302.6</ele>
<time>2025-02-06T14:41:50.516Z</time>
</trkpt>
<trkpt lat="-13.537266" lon="-71.903359">
<ele>3302.8</ele>
<time>2025-02-06T14:41:53.537Z</time>
</trkpt>
<trkpt lat="-13.537308" lon="-71.9034">
<ele>3302.8</ele>
<time>2025-02-06T14:41:56.472Z</time>
</trkpt>
<trkpt lat="-13.53732" lon="-71.903419">
<ele>3302.8</ele>
<time>2025-02-06T14:41:59.491Z</time>
</trkpt>
<trkpt lat="-13.53734" lon="-71.903427">
<ele>3301.8</ele>
<time>2025-02-06T14:42:02.516Z</time>
</trkpt>
<trkpt lat="-13.537364" lon="-71.903439">
<ele>3301.8</ele>
<time>2025-02-06T14:42:05.515Z</time>
</trkpt>
<trkpt lat="-13.53738" lon="-71.903425">
<ele>3301.8</ele>
<time>2025-02-06T14:42:08.516Z</time>
</trkpt>
<trkpt lat="-13.537407" lon="-71.903427">
<ele>3301.8</ele>
<time>2025-02-06T14:42:11.409Z</time>
</trkpt>
<trkpt lat="-13.537426" lon="-71.903461">
<ele>3300.2</ele>
<time>2025-02-06T14:42:14.407Z</time>
</trkpt>
<trkpt lat="-13.537456" lon="-71.903454">
<ele>3300.1</ele>
<time>2025-02-06T14:42:17.160Z</time>
</trkpt>
<trkpt lat="-13.537479" lon="-71.903462">
<ele>3300.1</ele>
<time>2025-02-06T14:42:20.271Z</time>
</trkpt>
<trkpt lat="-13.537496" lon="-71.903478">
<ele>3307.7</ele>
<time>2025-02-06T14:42:23.086Z</time>
</trkpt>
<trkpt lat="-13.537524" lon="-71.903459">
<ele>3306</ele>
<time>2025-02-06T14:42:25.990Z</time>
</trkpt>
<trkpt lat="-13.537533" lon="-71.903443">
<ele>3300.1</ele>
<time>2025-02-06T14:42:29.606Z</time>
</trkpt>
<trkpt lat="-13.537534" lon="-71.903435">
<ele>3300.1</ele>
<time>2025-02-06T14:42:32.315Z</time>
</trkpt>
<trkpt lat="-13.537522" lon="-71.903433">
<ele>3300.2</ele>
<time>2025-02-06T14:42:35.332Z</time>
</trkpt>
<trkpt lat="-13.537539" lon="-71.903438">
<ele>3300.2</ele>
<time>2025-02-06T14:42:38.426Z</time>
</trkpt>
<trkpt lat="-13.537557" lon="-71.903436">
<ele>3300.2</ele>
<time>2025-02-06T14:42:41.586Z</time>
</trkpt>
<trkpt lat="-13.537575" lon="-71.903457">
<ele>3300.2</ele>
<time>2025-02-06T14:42:44.516Z</time>
</trkpt>
<trkpt lat="-13.537579" lon="-71.903441">
<ele>3299.3</ele>
<time>2025-02-06T14:42:47.592Z</time>
</trkpt>
<trkpt lat="-13.53758" lon="-71.903454">
<ele>3299.3</ele>
<time>2025-02-06T14:42:50.516Z</time>
</trkpt>
<trkpt lat="-13.537579" lon="-71.903459">
<ele>3299.3</ele>
<time>2025-02-06T14:42:53.516Z</time>
</trkpt>
<trkpt lat="-13.537568" lon="-71.903452">
<ele>3299.6</ele>
<time>2025-02-06T14:42:56.610Z</time>
</trkpt>
<trkpt lat="-13.537574" lon="-71.903449">
<ele>3299.6</ele>
<time>2025-02-06T14:42:59.516Z</time>
</trkpt>
<trkpt lat="-13.537573" lon="-71.903443">
<ele>3299.2</ele>
<time>2025-02-06T14:43:02.602Z</time>
</trkpt>
<trkpt lat="-13.537584" lon="-71.903445">
<ele>3299.2</ele>
<time>2025-02-06T14:43:05.516Z</time>
</trkpt>
<trkpt lat="-13.537624" lon="-71.90345">
<ele>3298.8</ele>
<time>2025-02-06T14:43:08.332Z</time>
</trkpt>
<trkpt lat="-13.537667" lon="-71.903465">
<ele>3298.8</ele>
<time>2025-02-06T14:43:11.393Z</time>
</trkpt>
<trkpt lat="-13.537697" lon="-71.903464">
<ele>3298.8</ele>
<time>2025-02-06T14:43:14.190Z</time>
</trkpt>
<trkpt lat="-13.537727" lon="-71.903461">
<ele>3298.6</ele>
<time>2025-02-06T14:43:17.589Z</time>
</trkpt>
<trkpt lat="-13.537732" lon="-71.903461">
<ele>3298.6</ele>
<time>2025-02-06T14:43:20.590Z</time>
</trkpt>
<trkpt lat="-13.537723" lon="-71.903485">
<ele>3298</ele>
<time>2025-02-06T14:43:23.601Z</time>
</trkpt>
<trkpt lat="-13.537734" lon="-71.903501">
<ele>3298</ele>
<time>2025-02-06T14:43:26.596Z</time>
</trkpt>
<trkpt lat="-13.537778" lon="-71.903505">
<ele>3298</ele>
<time>2025-02-06T14:43:29.516Z</time>
</trkpt>
<trkpt lat="-13.537787" lon="-71.903509">
<ele>3298</ele>
<time>2025-02-06T14:43:32.550Z</time>
</trkpt>
<trkpt lat="-13.537818" lon="-71.903499">
<ele>3298</ele>
<time>2025-02-06T14:43:35.583Z</time>
</trkpt>
<trkpt lat="-13.537854" lon="-71.903498">
<ele>3297.2</ele>
<time>2025-02-06T14:43:38.389Z</time>
</trkpt>
<trkpt lat="-13.537848" lon="-71.903504">
<ele>3297.2</ele>
<time>2025-02-06T14:43:41.586Z</time>
</trkpt>
<trkpt lat="-13.537893" lon="-71.903545">
<ele>3297.2</ele>
<time>2025-02-06T14:43:44.516Z</time>
</trkpt>
<trkpt lat="-13.537916" lon="-71.90354">
<ele>3297</ele>
<time>2025-02-06T14:43:47.583Z</time>
</trkpt>
<trkpt lat="-13.53791" lon="-71.903561">
<ele>3297</ele>
<time>2025-02-06T14:43:50.589Z</time>
</trkpt>
<trkpt lat="-13.53793" lon="-71.903583">
<ele>3297</ele>
<time>2025-02-06T14:43:53.516Z</time>
</trkpt>
<trkpt lat="-13.537936" lon="-71.903595">
<ele>3297.2</ele>
<time>2025-02-06T14:43:56.589Z</time>
</trkpt>
<trkpt lat="-13.537942" lon="-71.903601">
<ele>3297.2</ele>
<time>2025-02-06T14:43:59.591Z</time>
</trkpt>
<trkpt lat="-13.53796" lon="-71.903606">
<ele>3296.8</ele>
<time>2025-02-06T14:44:02.537Z</time>
</trkpt>
<trkpt lat="-13.537993" lon="-71.903631">
<ele>3296.8</ele>
<time>2025-02-06T14:44:05.588Z</time>
</trkpt>
<trkpt lat="-13.538012" lon="-71.903644">
<ele>3296.8</ele>
<time>2025-02-06T14:44:08.516Z</time>
</trkpt>
<trkpt lat="-13.537995" lon="-71.903643">
<ele>3296.8</ele>
<time>2025-02-06T14:44:14.606Z</time>
</trkpt>
<trkpt lat="-13.538001" lon="-71.903645">
<ele>3296.8</ele>
<time>2025-02-06T14:44:17.516Z</time>
</trkpt>
<trkpt lat="-13.538" lon="-71.903643">
<ele>3296.8</ele>
<time>2025-02-06T14:44:23.546Z</time>
</trkpt>
<trkpt lat="-13.538009" lon="-71.903649">
<ele>3296.8</ele>
<time>2025-02-06T14:44:26.516Z</time>
</trkpt>
<trkpt lat="-13.538009" lon="-71.903649">
<ele>3296.8</ele>
<time>2025-02-06T14:44:29.516Z</time>
</trkpt>
<trkpt lat="-13.538008" lon="-71.903649">
<ele>3296.8</ele>
<time>2025-02-06T14:44:32.515Z</time>
</trkpt>
<trkpt lat="-13.538007" lon="-71.903649">
<ele>3296.8</ele>
<time>2025-02-06T14:44:35.516Z</time>
</trkpt>
<trkpt lat="-13.538006" lon="-71.903649">
<ele>3296.8</ele>
<time>2025-02-06T14:44:38.516Z</time>
</trkpt>
<trkpt lat="-13.537994" lon="-71.903643">
<ele>3296.8</ele>
<time>2025-02-06T14:44:41.516Z</time>
</trkpt>
<trkpt lat="-13.537987" lon="-71.903642">
<ele>3296.8</ele>
<time>2025-02-06T14:44:44.516Z</time>
</trkpt>
<trkpt lat="-13.537986" lon="-71.903642">
<ele>3296.8</ele>
<time>2025-02-06T14:44:47.516Z</time>
</trkpt>
<trkpt lat="-13.537984" lon="-71.903642">
<ele>3296.8</ele>
<time>2025-02-06T14:44:50.516Z</time>
</trkpt>
<trkpt lat="-13.537983" lon="-71.903642">
<ele>3296.8</ele>
<time>2025-02-06T14:44:53.516Z</time>
</trkpt>
<trkpt lat="-13.537982" lon="-71.903642">
<ele>3296.8</ele>
<time>2025-02-06T14:44:56.516Z</time>
</trkpt>
<trkpt lat="-13.537981" lon="-71.903642">
<ele>3296.8</ele>
<time>2025-02-06T14:44:59.516Z</time>
</trkpt>
<trkpt lat="-13.537983" lon="-71.903646">
<ele>3296.8</ele>
<time>2025-02-06T14:45:02.515Z</time>
</trkpt>
<trkpt lat="-13.537979" lon="-71.903652">
<ele>3296.8</ele>
<time>2025-02-06T14:45:05.516Z</time>
</trkpt>
<trkpt lat="-13.537978" lon="-71.903653">
<ele>3296.8</ele>
<time>2025-02-06T14:45:08.516Z</time>
</trkpt>
<trkpt lat="-13.537977" lon="-71.903649">
<ele>3296.8</ele>
<time>2025-02-06T14:45:11.515Z</time>
</trkpt>
<trkpt lat="-13.537955" lon="-71.90366">
<ele>3296.8</ele>
<time>2025-02-06T14:45:14.516Z</time>
</trkpt>
<trkpt lat="-13.537962" lon="-71.903643">
<ele>3296.8</ele>
<time>2025-02-06T14:45:17.308Z</time>
</trkpt>
<trkpt lat="-13.537959" lon="-71.903635">
<ele>3296.8</ele>
<time>2025-02-06T14:45:20.186Z</time>
</trkpt>
<trkpt lat="-13.537944" lon="-71.903605">
<ele>3296.8</ele>
<time>2025-02-06T14:45:23.488Z</time>
</trkpt>
<trkpt lat="-13.537958" lon="-71.903611">
<ele>3296.8</ele>
<time>2025-02-06T14:45:26.516Z</time>
</trkpt>
<trkpt lat="-13.537962" lon="-71.903575">
<ele>3297</ele>
<time>2025-02-06T14:45:29.516Z</time>
</trkpt>
<trkpt lat="-13.537963" lon="-71.903567">
<ele>3297</ele>
<time>2025-02-06T14:45:32.246Z</time>
</trkpt>
<trkpt lat="-13.537972" lon="-71.90355">
<ele>3296.8</ele>
<time>2025-02-06T14:45:35.389Z</time>
</trkpt>
<trkpt lat="-13.537983" lon="-71.903575">
<ele>3296.8</ele>
<time>2025-02-06T14:45:38.513Z</time>
</trkpt>
<trkpt lat="-13.53799" lon="-71.903483">
<ele>3297.2</ele>
<time>2025-02-06T14:45:41.533Z</time>
</trkpt>
<trkpt lat="-13.537993" lon="-71.903446">
<ele>3297.2</ele>
<time>2025-02-06T14:45:44.516Z</time>
</trkpt>
<trkpt lat="-13.537995" lon="-71.903422">
<ele>3297.2</ele>
<time>2025-02-06T14:45:47.364Z</time>
</trkpt>
<trkpt lat="-13.537992" lon="-71.903397">
<ele>3297.3</ele>
<time>2025-02-06T14:45:50.516Z</time>
</trkpt>
<trkpt lat="-13.537988" lon="-71.903374">
<ele>3297.3</ele>
<time>2025-02-06T14:45:53.353Z</time>
</trkpt>
<trkpt lat="-13.537982" lon="-71.903355">
<ele>3297.2</ele>
<time>2025-02-06T14:45:56.516Z</time>
</trkpt>
<trkpt lat="-13.53798" lon="-71.903327">
<ele>3297.2</ele>
<time>2025-02-06T14:45:59.587Z</time>
</trkpt>
<trkpt lat="-13.537963" lon="-71.903323">
<ele>3297.2</ele>
<time>2025-02-06T14:46:02.591Z</time>
</trkpt>
<trkpt lat="-13.537982" lon="-71.903369">
<ele>3297.2</ele>
<time>2025-02-06T14:46:05.516Z</time>
</trkpt>
<trkpt lat="-13.53799" lon="-71.903394">
<ele>3297.3</ele>
<time>2025-02-06T14:46:08.515Z</time>
</trkpt>
<trkpt lat="-13.537992" lon="-71.903401">
<ele>3297.3</ele>
<time>2025-02-06T14:46:11.515Z</time>
</trkpt>
<trkpt lat="-13.537988" lon="-71.903407">
<ele>3297.2</ele>
<time>2025-02-06T14:46:14.515Z</time>
</trkpt>
<trkpt lat="-13.537986" lon="-71.903408">
<ele>3297.3</ele>
<time>2025-02-06T14:46:17.516Z</time>
</trkpt>
<trkpt lat="-13.538055" lon="-71.903534">
<ele>3297.3</ele>
<time>2025-02-06T14:46:20.515Z</time>
</trkpt>
<trkpt lat="-13.538084" lon="-71.903587">
<ele>3297.2</ele>
<time>2025-02-06T14:46:23.516Z</time>
</trkpt>
<trkpt lat="-13.538094" lon="-71.903604">
<ele>3297.2</ele>
<time>2025-02-06T14:46:26.516Z</time>
</trkpt>
<trkpt lat="-13.538096" lon="-71.903608">
<ele>3297.2</ele>
<time>2025-02-06T14:46:29.516Z</time>
</trkpt>
<trkpt lat="-13.538096" lon="-71.903608">
<ele>3297.2</ele>
<time>2025-02-06T14:46:32.516Z</time>
</trkpt>
<trkpt lat="-13.538096" lon="-71.903598">
<ele>3297.2</ele>
<time>2025-02-06T14:46:35.516Z</time>
</trkpt>
<trkpt lat="-13.538093" lon="-71.903558">
<ele>3297.2</ele>
<time>2025-02-06T14:46:38.516Z</time>
</trkpt>
<trkpt lat="-13.538092" lon="-71.903549">
<ele>3297.2</ele>
<time>2025-02-06T14:46:41.516Z</time>
</trkpt>
<trkpt lat="-13.538092" lon="-71.903549">
<ele>3297.2</ele>
<time>2025-02-06T14:46:44.516Z</time>
</trkpt>
<trkpt lat="-13.538092" lon="-71.903548">
<ele>3297.2</ele>
<time>2025-02-06T14:46:47.516Z</time>
</trkpt>
<trkpt lat="-13.538004" lon="-71.903474">
<ele>3297.2</ele>
<time>2025-02-06T14:46:50.390Z</time>
</trkpt>
<trkpt lat="-13.537994" lon="-71.90345">
<ele>3297.2</ele>
<time>2025-02-06T14:46:53.602Z</time>
</trkpt>
<trkpt lat="-13.537994" lon="-71.903447">
<ele>3297.2</ele>
<time>2025-02-06T14:46:56.598Z</time>
</trkpt>
<trkpt lat="-13.538" lon="-71.90345">
<ele>3297.2</ele>
<time>2025-02-06T14:46:59.516Z</time>
</trkpt>
<trkpt lat="-13.538001" lon="-71.903447">
<ele>3297.2</ele>
<time>2025-02-06T14:47:05.570Z</time>
</trkpt>
<trkpt lat="-13.538003" lon="-71.903449">
<ele>3297.2</ele>
<time>2025-02-06T14:47:08.516Z</time>
</trkpt>
<trkpt lat="-13.537996" lon="-71.903439">
<ele>3297.3</ele>
<time>2025-02-06T14:47:11.599Z</time>
</trkpt>
<trkpt lat="-13.537997" lon="-71.903438">
<ele>3297.3</ele>
<time>2025-02-06T14:47:14.516Z</time>
</trkpt>
<trkpt lat="-13.537992" lon="-71.903435">
<ele>3297.3</ele>
<time>2025-02-06T14:47:17.593Z</time>
</trkpt>
<trkpt lat="-13.53799" lon="-71.903436">
<ele>3297.3</ele>
<time>2025-02-06T14:47:20.599Z</time>
</trkpt>
<trkpt lat="-13.537943" lon="-71.90348">
<ele>3297.3</ele>
<time>2025-02-06T14:47:23.516Z</time>
</trkpt>
<trkpt lat="-13.537947" lon="-71.903491">
<ele>3297.3</ele>
<time>2025-02-06T14:47:26.594Z</time>
</trkpt>
<trkpt lat="-13.537947" lon="-71.903468">
<ele>3297.3</ele>
<time>2025-02-06T14:47:29.610Z</time>
</trkpt>
<trkpt lat="-13.537945" lon="-71.903476">
<ele>3297.3</ele>
<time>2025-02-06T14:47:32.406Z</time>
</trkpt>
<trkpt lat="-13.537932" lon="-71.903474">
<ele>3297.2</ele>
<time>2025-02-06T14:47:35.242Z</time>
</trkpt>
<trkpt lat="-13.537927" lon="-71.903487">
<ele>3297.2</ele>
<time>2025-02-06T14:47:38.490Z</time>
</trkpt>
<trkpt lat="-13.537894" lon="-71.903509">
<ele>3297.3</ele>
<time>2025-02-06T14:47:41.515Z</time>
</trkpt>
<trkpt lat="-13.537865" lon="-71.903502">
<ele>3297.3</ele>
<time>2025-02-06T14:47:44.286Z</time>
</trkpt>
<trkpt lat="-13.5378" lon="-71.903549">
<ele>3297</ele>
<time>2025-02-06T14:47:47.514Z</time>
</trkpt>
<trkpt lat="-13.537766" lon="-71.903538">
<ele>3297.6</ele>
<time>2025-02-06T14:47:50.515Z</time>
</trkpt>
<trkpt lat="-13.537739" lon="-71.903541">
<ele>3297.6</ele>
<time>2025-02-06T14:47:53.473Z</time>
</trkpt>
<trkpt lat="-13.537698" lon="-71.903569">
<ele>3298</ele>
<time>2025-02-06T14:47:56.250Z</time>
</trkpt>
<trkpt lat="-13.537668" lon="-71.90358">
<ele>3298</ele>
<time>2025-02-06T14:47:59.451Z</time>
</trkpt>
<trkpt lat="-13.537642" lon="-71.903561">
<ele>3298</ele>
<time>2025-02-06T14:48:02.514Z</time>
</trkpt>
<trkpt lat="-13.537634" lon="-71.903547">
<ele>3298</ele>
<time>2025-02-06T14:48:05.236Z</time>
</trkpt>
<trkpt lat="-13.537628" lon="-71.903534">
<ele>3298</ele>
<time>2025-02-06T14:48:08.515Z</time>
</trkpt>
<trkpt lat="-13.537659" lon="-71.903522">
<ele>3298</ele>
<time>2025-02-06T14:48:11.536Z</time>
</trkpt>
<trkpt lat="-13.537668" lon="-71.903524">
<ele>3298</ele>
<time>2025-02-06T14:48:14.514Z</time>
</trkpt>
<trkpt lat="-13.537675" lon="-71.903526">
<ele>3298</ele>
<time>2025-02-06T14:48:17.515Z</time>
</trkpt>
<trkpt lat="-13.537706" lon="-71.903538">
<ele>3298</ele>
<time>2025-02-06T14:48:20.515Z</time>
</trkpt>
<trkpt lat="-13.537712" lon="-71.90354">
<ele>3298</ele>
<time>2025-02-06T14:48:23.515Z</time>
</trkpt>
<trkpt lat="-13.537711" lon="-71.903538">
<ele>3298</ele>
<time>2025-02-06T14:48:26.537Z</time>
</trkpt>
<trkpt lat="-13.537714" lon="-71.903545">
<ele>3298</ele>
<time>2025-02-06T14:48:29.515Z</time>
</trkpt>
<trkpt lat="-13.53772" lon="-71.903554">
<ele>3298</ele>
<time>2025-02-06T14:48:32.515Z</time>
</trkpt>
<trkpt lat="-13.537722" lon="-71.903554">
<ele>3298</ele>
<time>2025-02-06T14:48:35.515Z</time>
</trkpt>
<trkpt lat="-13.537722" lon="-71.903553">
<ele>3298</ele>
<time>2025-02-06T14:48:38.514Z</time>
</trkpt>
<trkpt lat="-13.537723" lon="-71.903555">
<ele>3298</ele>
<time>2025-02-06T14:48:41.515Z</time>
</trkpt>
<trkpt lat="-13.537723" lon="-71.903554">
<ele>3298</ele>
<time>2025-02-06T14:48:44.514Z</time>
</trkpt>
<trkpt lat="-13.537723" lon="-71.903568">
<ele>3298</ele>
<time>2025-02-06T14:48:47.515Z</time>
</trkpt>
<trkpt lat="-13.537723" lon="-71.903571">
<ele>3298</ele>
<time>2025-02-06T14:48:50.515Z</time>
</trkpt>
<trkpt lat="-13.537723" lon="-71.903571">
<ele>3298</ele>
<time>2025-02-06T14:48:53.515Z</time>
</trkpt>
<trkpt lat="-13.537723" lon="-71.903571">
<ele>3298</ele>
<time>2025-02-06T14:48:56.515Z</time>
</trkpt>
<trkpt lat="-13.537723" lon="-71.903571">
<ele>3298</ele>
<time>2025-02-06T14:48:59.515Z</time>
</trkpt>
<trkpt lat="-13.537723" lon="-71.903571">
<ele>3298</ele>
<time>2025-02-06T14:49:02.515Z</time>
</trkpt>
<trkpt lat="-13.537723" lon="-71.903571">
<ele>3298</ele>
<time>2025-02-06T14:49:05.515Z</time>
</trkpt>
<trkpt lat="-13.537723" lon="-71.903571">
<ele>3298</ele>
<time>2025-02-06T14:49:08.515Z</time>
</trkpt>
<trkpt lat="-13.537723" lon="-71.903571">
<ele>3298</ele>
<time>2025-02-06T14:49:11.515Z</time>
</trkpt>
<trkpt lat="-13.537723" lon="-71.903571">
<ele>3298</ele>
<time>2025-02-06T14:49:14.514Z</time>
</trkpt>
<trkpt lat="-13.537723" lon="-71.903571">
<ele>3298</ele>
<time>2025-02-06T14:49:17.515Z</time>
</trkpt>
<trkpt lat="-13.537717" lon="-71.903581">
<ele>3298</ele>
<time>2025-02-06T14:49:20.515Z</time>
</trkpt>
<trkpt lat="-13.537721" lon="-71.903586">
<ele>3298</ele>
<time>2025-02-06T14:49:23.515Z</time>
</trkpt>
<trkpt lat="-13.537726" lon="-71.903586">
<ele>3298</ele>
<time>2025-02-06T14:49:26.514Z</time>
</trkpt>
<trkpt lat="-13.537722" lon="-71.903574">
<ele>3298</ele>
<time>2025-02-06T14:49:29.515Z</time>
</trkpt>
<trkpt lat="-13.537726" lon="-71.903566">
<ele>3298</ele>
<time>2025-02-06T14:49:32.515Z</time>
</trkpt>
<trkpt lat="-13.537729" lon="-71.903567">
<ele>3298</ele>
<time>2025-02-06T14:49:35.515Z</time>
</trkpt>
<trkpt lat="-13.537729" lon="-71.903562">
<ele>3298</ele>
<time>2025-02-06T14:49:41.603Z</time>
</trkpt>
<trkpt lat="-13.537729" lon="-71.903561">
<ele>3298</ele>
<time>2025-02-06T14:49:44.303Z</time>
</trkpt>
<trkpt lat="-13.537723" lon="-71.903556">
<ele>3298</ele>
<time>2025-02-06T14:49:47.211Z</time>
</trkpt>
<trkpt lat="-13.537722" lon="-71.903556">
<ele>3298</ele>
<time>2025-02-06T14:49:50.262Z</time>
</trkpt>
<trkpt lat="-13.537718" lon="-71.90355">
<ele>3298</ele>
<time>2025-02-06T14:49:53.481Z</time>
</trkpt>
<trkpt lat="-13.537716" lon="-71.903544">
<ele>3298</ele>
<time>2025-02-06T14:49:56.514Z</time>
</trkpt>
<trkpt lat="-13.537715" lon="-71.903543">
<ele>3298</ele>
<time>2025-02-06T14:49:59.458Z</time>
</trkpt>
<trkpt lat="-13.537713" lon="-71.903542">
<ele>3298</ele>
<time>2025-02-06T14:50:02.446Z</time>
</trkpt>
<trkpt lat="-13.537713" lon="-71.90354">
<ele>3298</ele>
<time>2025-02-06T14:50:05.206Z</time>
</trkpt>
<trkpt lat="-13.537678" lon="-71.903524">
<ele>3298</ele>
<time>2025-02-06T14:50:08.515Z</time>
</trkpt>
<trkpt lat="-13.537663" lon="-71.90352">
<ele>3298</ele>
<time>2025-02-06T14:50:11.515Z</time>
</trkpt>
<trkpt lat="-13.537662" lon="-71.903519">
<ele>3298</ele>
<time>2025-02-06T14:50:14.515Z</time>
</trkpt>
<trkpt lat="-13.537664" lon="-71.903518">
<ele>3298.8</ele>
<time>2025-02-06T14:50:17.515Z</time>
</trkpt>
<trkpt lat="-13.537665" lon="-71.903517">
<ele>3298.8</ele>
<time>2025-02-06T14:50:20.514Z</time>
</trkpt>
<trkpt lat="-13.537665" lon="-71.903517">
<ele>3298</ele>
<time>2025-02-06T14:50:23.515Z</time>
</trkpt>
<trkpt lat="-13.537665" lon="-71.903518">
<ele>3298</ele>
<time>2025-02-06T14:50:26.514Z</time>
</trkpt>
<trkpt lat="-13.537683" lon="-71.903514">
<ele>3298</ele>
<time>2025-02-06T14:50:29.515Z</time>
</trkpt>
<trkpt lat="-13.537686" lon="-71.903516">
<ele>3298</ele>
<time>2025-02-06T14:50:32.515Z</time>
</trkpt>
<trkpt lat="-13.537688" lon="-71.903518">
<ele>3298</ele>
<time>2025-02-06T14:50:35.514Z</time>
</trkpt>
<trkpt lat="-13.537688" lon="-71.903518">
<ele>3298</ele>
<time>2025-02-06T14:50:38.515Z</time>
</trkpt>
<trkpt lat="-13.537688" lon="-71.903518">
<ele>3299.3</ele>
<time>2025-02-06T14:50:41.515Z</time>
</trkpt>
<trkpt lat="-13.537688" lon="-71.903518">
<ele>3299.3</ele>
<time>2025-02-06T14:50:44.515Z</time>
</trkpt>
<trkpt lat="-13.537687" lon="-71.903518">
<ele>3298</ele>
<time>2025-02-06T14:50:47.515Z</time>
</trkpt>
<trkpt lat="-13.537685" lon="-71.903518">
<ele>3298</ele>
<time>2025-02-06T14:50:50.515Z</time>
</trkpt>
<trkpt lat="-13.537674" lon="-71.903518">
<ele>3298</ele>
<time>2025-02-06T14:50:53.515Z</time>
</trkpt>
<trkpt lat="-13.537672" lon="-71.903519">
<ele>3298</ele>
<time>2025-02-06T14:50:56.515Z</time>
</trkpt>
<trkpt lat="-13.537644" lon="-71.903502">
<ele>3298</ele>
<time>2025-02-06T14:50:59.515Z</time>
</trkpt>
<trkpt lat="-13.537682" lon="-71.903512">
<ele>3298</ele>
<time>2025-02-06T14:51:02.408Z</time>
</trkpt>
<trkpt lat="-13.537666" lon="-71.903512">
<ele>3298.8</ele>
<time>2025-02-06T14:51:05.594Z</time>
</trkpt>
<trkpt lat="-13.537584" lon="-71.90348">
<ele>3298.8</ele>
<time>2025-02-06T14:51:08.515Z</time>
</trkpt>
<trkpt lat="-13.537562" lon="-71.903471">
<ele>3298.8</ele>
<time>2025-02-06T14:51:11.590Z</time>
</trkpt>
<trkpt lat="-13.53755" lon="-71.903462">
<ele>3298.8</ele>
<time>2025-02-06T14:51:14.515Z</time>
</trkpt>
<trkpt lat="-13.537524" lon="-71.903432">
<ele>3299.3</ele>
<time>2025-02-06T14:51:17.515Z</time>
</trkpt>
<trkpt lat="-13.537507" lon="-71.903421">
<ele>3299.3</ele>
<time>2025-02-06T14:51:20.515Z</time>
</trkpt>
<trkpt lat="-13.537452" lon="-71.903466">
<ele>3300.2</ele>
<time>2025-02-06T14:51:23.514Z</time>
</trkpt>
<trkpt lat="-13.537423" lon="-71.903484">
<ele>3300.2</ele>
<time>2025-02-06T14:51:26.390Z</time>
</trkpt>
<trkpt lat="-13.537426" lon="-71.90349">
<ele>3300.2</ele>
<time>2025-02-06T14:51:29.515Z</time>
</trkpt>
<trkpt lat="-13.537428" lon="-71.903484">
<ele>3300.2</ele>
<time>2025-02-06T14:51:32.515Z</time>
</trkpt>
<trkpt lat="-13.53743" lon="-71.903478">
<ele>3300.2</ele>
<time>2025-02-06T14:51:35.515Z</time>
</trkpt>
<trkpt lat="-13.537435" lon="-71.903472">
<ele>3300.2</ele>
<time>2025-02-06T14:51:38.515Z</time>
</trkpt>
<trkpt lat="-13.537435" lon="-71.903466">
<ele>3300.2</ele>
<time>2025-02-06T14:51:41.515Z</time>
</trkpt>
<trkpt lat="-13.537435" lon="-71.903466">
<ele>3300.2</ele>
<time>2025-02-06T14:51:44.514Z</time>
</trkpt>
<trkpt lat="-13.537435" lon="-71.903465">
<ele>3300.2</ele>
<time>2025-02-06T14:51:47.515Z</time>
</trkpt>
<trkpt lat="-13.537446" lon="-71.903458">
<ele>3300.2</ele>
<time>2025-02-06T14:51:50.515Z</time>
</trkpt>
<trkpt lat="-13.537448" lon="-71.903456">
<ele>3310.4</ele>
<time>2025-02-06T14:51:53.515Z</time>
</trkpt>
<trkpt lat="-13.537449" lon="-71.903456">
<ele>3310.4</ele>
<time>2025-02-06T14:51:56.515Z</time>
</trkpt>
<trkpt lat="-13.537449" lon="-71.903456">
<ele>3300.2</ele>
<time>2025-02-06T14:51:59.515Z</time>
</trkpt>
<trkpt lat="-13.537449" lon="-71.903455">
<ele>3299.7</ele>
<time>2025-02-06T14:52:02.515Z</time>
</trkpt>
<trkpt lat="-13.537449" lon="-71.903455">
<ele>3299.7</ele>
<time>2025-02-06T14:52:05.514Z</time>
</trkpt>
<trkpt lat="-13.53745" lon="-71.903455">
<ele>3300.2</ele>
<time>2025-02-06T14:52:08.515Z</time>
</trkpt>
<trkpt lat="-13.53745" lon="-71.903455">
<ele>3300.2</ele>
<time>2025-02-06T14:52:11.514Z</time>
</trkpt>
<trkpt lat="-13.53745" lon="-71.903455">
<ele>3310.3</ele>
<time>2025-02-06T14:52:14.515Z</time>
</trkpt>
<trkpt lat="-13.53745" lon="-71.903455">
<ele>3310.3</ele>
<time>2025-02-06T14:52:17.515Z</time>
</trkpt>
<trkpt lat="-13.53745" lon="-71.903455">
<ele>3310.3</ele>
<time>2025-02-06T14:52:20.515Z</time>
</trkpt>
<trkpt lat="-13.537451" lon="-71.903455">
<ele>3299.7</ele>
<time>2025-02-06T14:52:23.515Z</time>
</trkpt>
<trkpt lat="-13.537451" lon="-71.903454">
<ele>3299.7</ele>
<time>2025-02-06T14:52:26.515Z</time>
</trkpt>
<trkpt lat="-13.537451" lon="-71.903454">
<ele>3299.7</ele>
<time>2025-02-06T14:52:29.515Z</time>
</trkpt>
<trkpt lat="-13.537452" lon="-71.903454">
<ele>3299.7</ele>
<time>2025-02-06T14:52:32.515Z</time>
</trkpt>
<trkpt lat="-13.537452" lon="-71.903454">
<ele>3299.7</ele>
<time>2025-02-06T14:52:35.515Z</time>
</trkpt>
<trkpt lat="-13.537452" lon="-71.903454">
<ele>3299.7</ele>
<time>2025-02-06T14:52:38.514Z</time>
</trkpt>
<trkpt lat="-13.537452" lon="-71.903454">
<ele>3299.7</ele>
<time>2025-02-06T14:52:41.515Z</time>
</trkpt>
<trkpt lat="-13.537452" lon="-71.903454">
<ele>3299.7</ele>
<time>2025-02-06T14:52:44.515Z</time>
</trkpt>
<trkpt lat="-13.537452" lon="-71.903453">
<ele>3299.7</ele>
<time>2025-02-06T14:52:47.515Z</time>
</trkpt>
<trkpt lat="-13.537453" lon="-71.903453">
<ele>3300.1</ele>
<time>2025-02-06T14:52:50.515Z</time>
</trkpt>
<trkpt lat="-13.537453" lon="-71.903453">
<ele>3310.2</ele>
<time>2025-02-06T14:52:53.515Z</time>
</trkpt>
<trkpt lat="-13.537452" lon="-71.903452">
<ele>3310</ele>
<time>2025-02-06T14:52:56.515Z</time>
</trkpt>
<trkpt lat="-13.537454" lon="-71.903454">
<ele>3300.2</ele>
<time>2025-02-06T14:52:59.335Z</time>
</trkpt>
<trkpt lat="-13.537448" lon="-71.903449">
<ele>3300.2</ele>
<time>2025-02-06T14:53:02.370Z</time>
</trkpt>
<trkpt lat="-13.537428" lon="-71.903492">
<ele>3309.9</ele>
<time>2025-02-06T14:53:05.515Z</time>
</trkpt>
<trkpt lat="-13.53744" lon="-71.903524">
<ele>3299.6</ele>
<time>2025-02-06T14:53:08.514Z</time>
</trkpt>
<trkpt lat="-13.537453" lon="-71.903549">
<ele>3299.6</ele>
<time>2025-02-06T14:53:11.365Z</time>
</trkpt>
<trkpt lat="-13.537498" lon="-71.903557">
<ele>3299.7</ele>
<time>2025-02-06T14:53:14.515Z</time>
</trkpt>
<trkpt lat="-13.537537" lon="-71.90357">
<ele>3299.7</ele>
<time>2025-02-06T14:53:17.515Z</time>
</trkpt>
<trkpt lat="-13.537585" lon="-71.903555">
<ele>3298.8</ele>
<time>2025-02-06T14:53:20.369Z</time>
</trkpt>
<trkpt lat="-13.537604" lon="-71.903581">
<ele>3298.8</ele>
<time>2025-02-06T14:53:23.128Z</time>
</trkpt>
<trkpt lat="-13.537637" lon="-71.903596">
<ele>3304</ele>
<time>2025-02-06T14:53:26.289Z</time>
</trkpt>
<trkpt lat="-13.537678" lon="-71.903611">
<ele>3298</ele>
<time>2025-02-06T14:53:29.393Z</time>
</trkpt>
<trkpt lat="-13.537706" lon="-71.903637">
<ele>3298</ele>
<time>2025-02-06T14:53:32.515Z</time>
</trkpt>
<trkpt lat="-13.537753" lon="-71.903631">
<ele>3298</ele>
<time>2025-02-06T14:53:35.514Z</time>
</trkpt>
<trkpt lat="-13.537797" lon="-71.903631">
<ele>3297.5</ele>
<time>2025-02-06T14:53:38.331Z</time>
</trkpt>
<trkpt lat="-13.537828" lon="-71.903647">
<ele>3297.5</ele>
<time>2025-02-06T14:53:41.408Z</time>
</trkpt>
<trkpt lat="-13.537859" lon="-71.903668">
<ele>3297.3</ele>
<time>2025-02-06T14:53:44.514Z</time>
</trkpt>
<trkpt lat="-13.537891" lon="-71.903682">
<ele>3297.3</ele>
<time>2025-02-06T14:53:47.515Z</time>
</trkpt>
<trkpt lat="-13.537926" lon="-71.903678">
<ele>3296.8</ele>
<time>2025-02-06T14:53:50.288Z</time>
</trkpt>
<trkpt lat="-13.537956" lon="-71.9037">
<ele>3296.8</ele>
<time>2025-02-06T14:53:53.370Z</time>
</trkpt>
<trkpt lat="-13.537988" lon="-71.903724">
<ele>3297.3</ele>
<time>2025-02-06T14:53:56.512Z</time>
</trkpt>
<trkpt lat="-13.538018" lon="-71.903751">
<ele>3297.3</ele>
<time>2025-02-06T14:53:59.509Z</time>
</trkpt>
<trkpt lat="-13.538052" lon="-71.903773">
<ele>3297.3</ele>
<time>2025-02-06T14:54:02.547Z</time>
</trkpt>
<trkpt lat="-13.538083" lon="-71.903765">
<ele>3296.8</ele>
<time>2025-02-06T14:54:05.515Z</time>
</trkpt>
<trkpt lat="-13.538117" lon="-71.903775">
<ele>3296.8</ele>
<time>2025-02-06T14:54:08.242Z</time>
</trkpt>
<trkpt lat="-13.538126" lon="-71.903798">
<ele>3295.1</ele>
<time>2025-02-06T14:54:11.407Z</time>
</trkpt>
<trkpt lat="-13.538096" lon="-71.903841">
<ele>3295.4</ele>
<time>2025-02-06T14:54:14.185Z</time>
</trkpt>
<trkpt lat="-13.538078" lon="-71.903878">
<ele>3295.4</ele>
<time>2025-02-06T14:54:16.954Z</time>
</trkpt>
<trkpt lat="-13.538046" lon="-71.903906">
<ele>3295.4</ele>
<time>2025-02-06T14:54:19.808Z</time>
</trkpt>
<trkpt lat="-13.538024" lon="-71.903934">
<ele>3295.4</ele>
<time>2025-02-06T14:54:22.568Z</time>
</trkpt>
<trkpt lat="-13.537994" lon="-71.903953">
<ele>3295.1</ele>
<time>2025-02-06T14:54:25.307Z</time>
</trkpt>
<trkpt lat="-13.537966" lon="-71.903973">
<ele>3295.1</ele>
<time>2025-02-06T14:54:28.026Z</time>
</trkpt>
<trkpt lat="-13.537938" lon="-71.903992">
<ele>3295.4</ele>
<time>2025-02-06T14:54:30.767Z</time>
</trkpt>
<trkpt lat="-13.537887" lon="-71.904007">
<ele>3295.3</ele>
<time>2025-02-06T14:54:33.526Z</time>
</trkpt>
<trkpt lat="-13.537868" lon="-71.904027">
<ele>3295.3</ele>
<time>2025-02-06T14:54:36.425Z</time>
</trkpt>
<trkpt lat="-13.537822" lon="-71.904043">
<ele>3295.1</ele>
<time>2025-02-06T14:54:39.687Z</time>
</trkpt>
<trkpt lat="-13.537808" lon="-71.904064">
<ele>3295.1</ele>
<time>2025-02-06T14:54:42.453Z</time>
</trkpt>
<trkpt lat="-13.537766" lon="-71.904089">
<ele>3295.4</ele>
<time>2025-02-06T14:54:45.633Z</time>
</trkpt>
<trkpt lat="-13.537751" lon="-71.904111">
<ele>3295.4</ele>
<time>2025-02-06T14:54:48.436Z</time>
</trkpt>
<trkpt lat="-13.537724" lon="-71.904146">
<ele>3295.4</ele>
<time>2025-02-06T14:54:51.284Z</time>
</trkpt>
<trkpt lat="-13.537697" lon="-71.904169">
<ele>3294.3</ele>
<time>2025-02-06T14:54:54.447Z</time>
</trkpt>
<trkpt lat="-13.537688" lon="-71.904202">
<ele>3294.3</ele>
<time>2025-02-06T14:54:57.750Z</time>
</trkpt>
<trkpt lat="-13.537667" lon="-71.904219">
<ele>3294.2</ele>
<time>2025-02-06T14:55:00.988Z</time>
</trkpt>
<trkpt lat="-13.53766" lon="-71.904254">
<ele>3293.5</ele>
<time>2025-02-06T14:55:04.187Z</time>
</trkpt>
<trkpt lat="-13.537663" lon="-71.904285">
<ele>3293.5</ele>
<time>2025-02-06T14:55:07.013Z</time>
</trkpt>
<trkpt lat="-13.537666" lon="-71.904315">
<ele>3295.3</ele>
<time>2025-02-06T14:55:09.797Z</time>
</trkpt>
<trkpt lat="-13.537662" lon="-71.904344">
<ele>3295.3</ele>
<time>2025-02-06T14:55:12.531Z</time>
</trkpt>
<trkpt lat="-13.537653" lon="-71.904362">
<ele>3295.3</ele>
<time>2025-02-06T14:55:15.310Z</time>
</trkpt>
<trkpt lat="-13.537662" lon="-71.904403">
<ele>3294.3</ele>
<time>2025-02-06T14:55:18.437Z</time>
</trkpt>
<trkpt lat="-13.537647" lon="-71.904423">
<ele>3294.3</ele>
<time>2025-02-06T14:55:21.152Z</time>
</trkpt>
<trkpt lat="-13.537636" lon="-71.90446">
<ele>3293.5</ele>
<time>2025-02-06T14:55:24.628Z</time>
</trkpt>
<trkpt lat="-13.537651" lon="-71.904497">
<ele>3293.5</ele>
<time>2025-02-06T14:55:27.532Z</time>
</trkpt>
<trkpt lat="-13.537639" lon="-71.904528">
<ele>3293.5</ele>
<time>2025-02-06T14:55:30.386Z</time>
</trkpt>
<trkpt lat="-13.537629" lon="-71.904557">
<ele>3293.5</ele>
<time>2025-02-06T14:55:33.345Z</time>
</trkpt>
<trkpt lat="-13.537611" lon="-71.904581">
<ele>3292.9</ele>
<time>2025-02-06T14:55:36.172Z</time>
</trkpt>
<trkpt lat="-13.537586" lon="-71.904606">
<ele>3294.2</ele>
<time>2025-02-06T14:55:39.354Z</time>
</trkpt>
<trkpt lat="-13.53757" lon="-71.904629">
<ele>3294.2</ele>
<time>2025-02-06T14:55:42.189Z</time>
</trkpt>
<trkpt lat="-13.537532" lon="-71.904654">
<ele>3292.9</ele>
<time>2025-02-06T14:55:45.494Z</time>
</trkpt>
<trkpt lat="-13.53751" lon="-71.904669">
<ele>3292.9</ele>
<time>2025-02-06T14:55:48.440Z</time>
</trkpt>
<trkpt lat="-13.537482" lon="-71.904686">
<ele>3292.9</ele>
<time>2025-02-06T14:55:51.269Z</time>
</trkpt>
<trkpt lat="-13.537464" lon="-71.904707">
<ele>3292.6</ele>
<time>2025-02-06T14:55:54.151Z</time>
</trkpt>
<trkpt lat="-13.53744" lon="-71.904728">
<ele>3292.6</ele>
<time>2025-02-06T14:55:57.390Z</time>
</trkpt>
<trkpt lat="-13.53742" lon="-71.904733">
<ele>3292.8</ele>
<time>2025-02-06T14:56:00.149Z</time>
</trkpt>
<trkpt lat="-13.537405" lon="-71.904757">
<ele>3292.8</ele>
<time>2025-02-06T14:56:03.014Z</time>
</trkpt>
<trkpt lat="-13.53739" lon="-71.904761">
<ele>3292.8</ele>
<time>2025-02-06T14:56:05.773Z</time>
</trkpt>
<trkpt lat="-13.537368" lon="-71.90478">
<ele>3292.8</ele>
<time>2025-02-06T14:56:08.515Z</time>
</trkpt>
<trkpt lat="-13.537361" lon="-71.904808">
<ele>3292.8</ele>
<time>2025-02-06T14:56:11.515Z</time>
</trkpt>
<trkpt lat="-13.537358" lon="-71.90484">
<ele>3292.8</ele>
<time>2025-02-06T14:56:14.307Z</time>
</trkpt>
<trkpt lat="-13.537371" lon="-71.90483">
<ele>3292.8</ele>
<time>2025-02-06T14:56:17.515Z</time>
</trkpt>
<trkpt lat="-13.537379" lon="-71.904822">
<ele>3292.8</ele>
<time>2025-02-06T14:56:20.515Z</time>
</trkpt>
<trkpt lat="-13.537381" lon="-71.904825">
<ele>3292.8</ele>
<time>2025-02-06T14:56:23.515Z</time>
</trkpt>
<trkpt lat="-13.537383" lon="-71.904821">
<ele>3292.8</ele>
<time>2025-02-06T14:56:26.514Z</time>
</trkpt>
<trkpt lat="-13.537386" lon="-71.904815">
<ele>3292.9</ele>
<time>2025-02-06T14:56:29.515Z</time>
</trkpt>
<trkpt lat="-13.537389" lon="-71.904816">
<ele>3292.9</ele>
<time>2025-02-06T14:56:32.515Z</time>
</trkpt>
<trkpt lat="-13.537414" lon="-71.904822">
<ele>3292.9</ele>
<time>2025-02-06T14:56:35.514Z</time>
</trkpt>
<trkpt lat="-13.537417" lon="-71.904822">
<ele>3292.9</ele>
<time>2025-02-06T14:56:38.515Z</time>
</trkpt>
<trkpt lat="-13.537419" lon="-71.904821">
<ele>3292.9</ele>
<time>2025-02-06T14:56:41.515Z</time>
</trkpt>
<trkpt lat="-13.537419" lon="-71.904821">
<ele>3292.9</ele>
<time>2025-02-06T14:56:44.515Z</time>
</trkpt>
<trkpt lat="-13.537418" lon="-71.904819">
<ele>3292.9</ele>
<time>2025-02-06T14:56:47.515Z</time>
</trkpt>
<trkpt lat="-13.537418" lon="-71.904819">
<ele>3292.9</ele>
<time>2025-02-06T14:56:50.515Z</time>
</trkpt>
<trkpt lat="-13.5374" lon="-71.904828">
<ele>3292.9</ele>
<time>2025-02-06T14:56:53.515Z</time>
</trkpt>
<trkpt lat="-13.537376" lon="-71.904821">
<ele>3292.9</ele>
<time>2025-02-06T14:56:56.515Z</time>
</trkpt>
<trkpt lat="-13.53736" lon="-71.904846">
<ele>3292.9</ele>
<time>2025-02-06T14:56:59.511Z</time>
</trkpt>
<trkpt lat="-13.537349" lon="-71.904871">
<ele>3292.9</ele>
<time>2025-02-06T14:57:02.432Z</time>
</trkpt>
<trkpt lat="-13.537341" lon="-71.904894">
<ele>3292.9</ele>
<time>2025-02-06T14:57:05.514Z</time>
</trkpt>
<trkpt lat="-13.537343" lon="-71.904906">
<ele>3292.9</ele>
<time>2025-02-06T14:57:08.515Z</time>
</trkpt>
<trkpt lat="-13.53734" lon="-71.904896">
<ele>3292.9</ele>
<time>2025-02-06T14:57:11.516Z</time>
</trkpt>
<trkpt lat="-13.537337" lon="-71.904888">
<ele>3294</ele>
<time>2025-02-06T14:57:14.514Z</time>
</trkpt>
<trkpt lat="-13.537339" lon="-71.904891">
<ele>3294</ele>
<time>2025-02-06T14:57:17.514Z</time>
</trkpt>
<trkpt lat="-13.53733" lon="-71.904886">
<ele>3292.9</ele>
<time>2025-02-06T14:57:20.515Z</time>
</trkpt>
<trkpt lat="-13.537329" lon="-71.904887">
<ele>3292.9</ele>
<time>2025-02-06T14:57:23.515Z</time>
</trkpt>
<trkpt lat="-13.53733" lon="-71.904886">
<ele>3294.1</ele>
<time>2025-02-06T14:57:26.515Z</time>
</trkpt>
<trkpt lat="-13.53736" lon="-71.904916">
<ele>3294.1</ele>
<time>2025-02-06T14:57:29.515Z</time>
</trkpt>
<trkpt lat="-13.537366" lon="-71.90492">
<ele>3294.1</ele>
<time>2025-02-06T14:57:32.515Z</time>
</trkpt>
<trkpt lat="-13.537329" lon="-71.904888">
<ele>3293.8</ele>
<time>2025-02-06T14:57:35.515Z</time>
</trkpt>
<trkpt lat="-13.53733" lon="-71.904894">
<ele>3293.8</ele>
<time>2025-02-06T14:57:38.515Z</time>
</trkpt>
<trkpt lat="-13.537324" lon="-71.904887">
<ele>3292.9</ele>
<time>2025-02-06T14:57:41.225Z</time>
</trkpt>
<trkpt lat="-13.53732" lon="-71.904889">
<ele>3294.1</ele>
<time>2025-02-06T14:57:44.474Z</time>
</trkpt>
<trkpt lat="-13.537306" lon="-71.904926">
<ele>3294.1</ele>
<time>2025-02-06T14:57:47.515Z</time>
</trkpt>
<trkpt lat="-13.537301" lon="-71.904932">
<ele>3294</ele>
<time>2025-02-06T14:57:50.515Z</time>
</trkpt>
<trkpt lat="-13.537305" lon="-71.904948">
<ele>3294</ele>
<time>2025-02-06T14:57:53.514Z</time>
</trkpt>
<trkpt lat="-13.537311" lon="-71.904942">
<ele>3292.9</ele>
<time>2025-02-06T14:57:56.515Z</time>
</trkpt>
<trkpt lat="-13.537312" lon="-71.904933">
<ele>3292.9</ele>
<time>2025-02-06T14:57:59.514Z</time>
</trkpt>
<trkpt lat="-13.537316" lon="-71.904937">
<ele>3292.9</ele>
<time>2025-02-06T14:58:02.515Z</time>
</trkpt>
<trkpt lat="-13.537311" lon="-71.90492">
<ele>3292.9</ele>
<time>2025-02-06T14:58:05.326Z</time>
</trkpt>
<trkpt lat="-13.537301" lon="-71.904899">
<ele>3292.9</ele>
<time>2025-02-06T14:58:08.449Z</time>
</trkpt>
<trkpt lat="-13.537275" lon="-71.904864">
<ele>3293.7</ele>
<time>2025-02-06T14:58:11.408Z</time>
</trkpt>
<trkpt lat="-13.537249" lon="-71.904837">
<ele>3294</ele>
<time>2025-02-06T14:58:14.350Z</time>
</trkpt>
<trkpt lat="-13.537236" lon="-71.904815">
<ele>3294</ele>
<time>2025-02-06T14:58:17.252Z</time>
</trkpt>
<trkpt lat="-13.537221" lon="-71.904791">
<ele>3294.1</ele>
<time>2025-02-06T14:58:20.194Z</time>
</trkpt>
<trkpt lat="-13.537198" lon="-71.904769">
<ele>3294.1</ele>
<time>2025-02-06T14:58:23.345Z</time>
</trkpt>
<trkpt lat="-13.537165" lon="-71.904764">
<ele>3294</ele>
<time>2025-02-06T14:58:26.345Z</time>
</trkpt>
<trkpt lat="-13.537135" lon="-71.904752">
<ele>3294.1</ele>
<time>2025-02-06T14:58:29.312Z</time>
</trkpt>
<trkpt lat="-13.537115" lon="-71.904743">
<ele>3294.1</ele>
<time>2025-02-06T14:58:32.515Z</time>
</trkpt>
<trkpt lat="-13.537092" lon="-71.904729">
<ele>3294.4</ele>
<time>2025-02-06T14:58:35.515Z</time>
</trkpt>
<trkpt lat="-13.537097" lon="-71.904728">
<ele>3294.4</ele>
<time>2025-02-06T14:58:38.514Z</time>
</trkpt>
<trkpt lat="-13.537117" lon="-71.904748">
<ele>3302.9</ele>
<time>2025-02-06T14:58:41.515Z</time>
</trkpt>
<trkpt lat="-13.53712" lon="-71.904753">
<ele>3293.8</ele>
<time>2025-02-06T14:58:44.515Z</time>
</trkpt>
<trkpt lat="-13.537123" lon="-71.904754">
<ele>3293.8</ele>
<time>2025-02-06T14:58:47.515Z</time>
</trkpt>
<trkpt lat="-13.537126" lon="-71.904757">
<ele>3294</ele>
<time>2025-02-06T14:58:50.515Z</time>
</trkpt>
<trkpt lat="-13.537128" lon="-71.904756">
<ele>3294</ele>
<time>2025-02-06T14:58:53.515Z</time>
</trkpt>
<trkpt lat="-13.53712" lon="-71.904749">
<ele>3294</ele>
<time>2025-02-06T14:58:56.515Z</time>
</trkpt>
<trkpt lat="-13.537112" lon="-71.904742">
<ele>3293.8</ele>
<time>2025-02-06T14:58:59.514Z</time>
</trkpt>
<trkpt lat="-13.53711" lon="-71.904741">
<ele>3293.8</ele>
<time>2025-02-06T14:59:02.514Z</time>
</trkpt>
<trkpt lat="-13.537109" lon="-71.90474">
<ele>3294.4</ele>
<time>2025-02-06T14:59:05.515Z</time>
</trkpt>
<trkpt lat="-13.537109" lon="-71.90474">
<ele>3294.4</ele>
<time>2025-02-06T14:59:08.515Z</time>
</trkpt>
<trkpt lat="-13.537109" lon="-71.90474">
<ele>3294.1</ele>
<time>2025-02-06T14:59:11.515Z</time>
</trkpt>
<trkpt lat="-13.537109" lon="-71.90474">
<ele>3294</ele>
<time>2025-02-06T14:59:14.515Z</time>
</trkpt>
<trkpt lat="-13.537109" lon="-71.90474">
<ele>3294</ele>
<time>2025-02-06T14:59:17.514Z</time>
</trkpt>
<trkpt lat="-13.537109" lon="-71.90474">
<ele>3294.1</ele>
<time>2025-02-06T14:59:20.515Z</time>
</trkpt>
<trkpt lat="-13.53711" lon="-71.90474">
<ele>3294.1</ele>
<time>2025-02-06T14:59:23.515Z</time>
</trkpt>
<trkpt lat="-13.53711" lon="-71.90474">
<ele>3294.4</ele>
<time>2025-02-06T14:59:26.515Z</time>
</trkpt>
<trkpt lat="-13.537108" lon="-71.904743">
<ele>3294.4</ele>
<time>2025-02-06T14:59:29.514Z</time>
</trkpt>
<trkpt lat="-13.537108" lon="-71.904745">
<ele>3294.4</ele>
<time>2025-02-06T14:59:32.515Z</time>
</trkpt>
<trkpt lat="-13.537107" lon="-71.904746">
<ele>3294.4</ele>
<time>2025-02-06T14:59:35.515Z</time>
</trkpt>
<trkpt lat="-13.537107" lon="-71.904746">
<ele>3294.4</ele>
<time>2025-02-06T14:59:38.515Z</time>
</trkpt>
<trkpt lat="-13.537107" lon="-71.904746">
<ele>3294.1</ele>
<time>2025-02-06T14:59:41.514Z</time>
</trkpt>
<trkpt lat="-13.537106" lon="-71.904746">
<ele>3294.1</ele>
<time>2025-02-06T14:59:44.515Z</time>
</trkpt>
<trkpt lat="-13.537106" lon="-71.904746">
<ele>3294.1</ele>
<time>2025-02-06T14:59:47.515Z</time>
</trkpt>
<trkpt lat="-13.537106" lon="-71.904745">
<ele>3294.1</ele>
<time>2025-02-06T14:59:50.514Z</time>
</trkpt>
<trkpt lat="-13.537107" lon="-71.904747">
<ele>3294.1</ele>
<time>2025-02-06T14:59:53.514Z</time>
</trkpt>
<trkpt lat="-13.537108" lon="-71.904747">
<ele>3294.1</ele>
<time>2025-02-06T14:59:56.515Z</time>
</trkpt>
<trkpt lat="-13.537109" lon="-71.904747">
<ele>3294.1</ele>
<time>2025-02-06T14:59:59.514Z</time>
</trkpt>
<trkpt lat="-13.537109" lon="-71.904747">
<ele>3294.1</ele>
<time>2025-02-06T15:00:02.515Z</time>
</trkpt>
<trkpt lat="-13.537108" lon="-71.904747">
<ele>3294.1</ele>
<time>2025-02-06T15:00:05.515Z</time>
</trkpt>
<trkpt lat="-13.537108" lon="-71.904747">
<ele>3294.1</ele>
<time>2025-02-06T15:00:08.515Z</time>
</trkpt>
<trkpt lat="-13.537108" lon="-71.904747">
<ele>3294.1</ele>
<time>2025-02-06T15:00:11.515Z</time>
</trkpt>
<trkpt lat="-13.537108" lon="-71.904746">
<ele>3294.1</ele>
<time>2025-02-06T15:00:14.515Z</time>
</trkpt>
<trkpt lat="-13.537108" lon="-71.904746">
<ele>3294.1</ele>
<time>2025-02-06T15:00:17.515Z</time>
</trkpt>
<trkpt lat="-13.537108" lon="-71.904746">
<ele>3294.1</ele>
<time>2025-02-06T15:00:20.514Z</time>
</trkpt>
<trkpt lat="-13.537108" lon="-71.904746">
<ele>3294.1</ele>
<time>2025-02-06T15:00:23.515Z</time>
</trkpt>
<trkpt lat="-13.537108" lon="-71.904746">
<ele>3294.1</ele>
<time>2025-02-06T15:00:26.515Z</time>
</trkpt>
<trkpt lat="-13.537109" lon="-71.904747">
<ele>3294.1</ele>
<time>2025-02-06T15:00:29.515Z</time>
</trkpt>
<trkpt lat="-13.53711" lon="-71.904748">
<ele>3294.1</ele>
<time>2025-02-06T15:00:32.514Z</time>
</trkpt>
<trkpt lat="-13.53711" lon="-71.904748">
<ele>3294.1</ele>
<time>2025-02-06T15:00:35.514Z</time>
</trkpt>
<trkpt lat="-13.537109" lon="-71.904749">
<ele>3294.1</ele>
<time>2025-02-06T15:00:38.515Z</time>
</trkpt>
<trkpt lat="-13.537118" lon="-71.904759">
<ele>3294.4</ele>
<time>2025-02-06T15:00:41.346Z</time>
</trkpt>
<trkpt lat="-13.537118" lon="-71.904759">
<ele>3294.4</ele>
<time>2025-02-06T15:00:44.351Z</time>
</trkpt>
<trkpt lat="-13.537121" lon="-71.904761">
<ele>3294.4</ele>
<time>2025-02-06T15:00:47.515Z</time>
</trkpt>
<trkpt lat="-13.537125" lon="-71.904762">
<ele>3294.1</ele>
<time>2025-02-06T15:00:50.515Z</time>
</trkpt>
<trkpt lat="-13.537126" lon="-71.904763">
<ele>3294.1</ele>
<time>2025-02-06T15:00:53.515Z</time>
</trkpt>
<trkpt lat="-13.53713" lon="-71.904767">
<ele>3294.4</ele>
<time>2025-02-06T15:00:56.515Z</time>
</trkpt>
<trkpt lat="-13.537128" lon="-71.904766">
<ele>3294.4</ele>
<time>2025-02-06T15:00:59.514Z</time>
</trkpt>
<trkpt lat="-13.53711" lon="-71.90476">
<ele>3294.1</ele>
<time>2025-02-06T15:01:02.515Z</time>
</trkpt>
<trkpt lat="-13.537108" lon="-71.90476">
<ele>3294.1</ele>
<time>2025-02-06T15:01:05.515Z</time>
</trkpt>
<trkpt lat="-13.537107" lon="-71.904763">
<ele>3294.1</ele>
<time>2025-02-06T15:01:08.515Z</time>
</trkpt>
<trkpt lat="-13.537107" lon="-71.904761">
<ele>3294.4</ele>
<time>2025-02-06T15:01:11.515Z</time>
</trkpt>
<trkpt lat="-13.537107" lon="-71.904761">
<ele>3294.1</ele>
<time>2025-02-06T15:01:14.515Z</time>
</trkpt>
<trkpt lat="-13.537111" lon="-71.904768">
<ele>3294.1</ele>
<time>2025-02-06T15:01:17.515Z</time>
</trkpt>
<trkpt lat="-13.537126" lon="-71.904774">
<ele>3294.1</ele>
<time>2025-02-06T15:01:20.391Z</time>
</trkpt>
<trkpt lat="-13.537126" lon="-71.904775">
<ele>3294.1</ele>
<time>2025-02-06T15:01:23.515Z</time>
</trkpt>
<trkpt lat="-13.537135" lon="-71.904782">
<ele>3294.1</ele>
<time>2025-02-06T15:01:26.476Z</time>
</trkpt>
<trkpt lat="-13.537133" lon="-71.904783">
<ele>3294.1</ele>
<time>2025-02-06T15:01:29.515Z</time>
</trkpt>
<trkpt lat="-13.537135" lon="-71.904785">
<ele>3294</ele>
<time>2025-02-06T15:01:32.515Z</time>
</trkpt>
<trkpt lat="-13.537135" lon="-71.904784">
<ele>3294.1</ele>
<time>2025-02-06T15:01:35.515Z</time>
</trkpt>
<trkpt lat="-13.537133" lon="-71.904781">
<ele>3294.1</ele>
<time>2025-02-06T15:01:38.515Z</time>
</trkpt>
<trkpt lat="-13.537121" lon="-71.904777">
<ele>3294.1</ele>
<time>2025-02-06T15:01:41.515Z</time>
</trkpt>
<trkpt lat="-13.537119" lon="-71.904776">
<ele>3294.1</ele>
<time>2025-02-06T15:01:44.515Z</time>
</trkpt>
<trkpt lat="-13.537118" lon="-71.904776">
<ele>3294.1</ele>
<time>2025-02-06T15:01:47.515Z</time>
</trkpt>
<trkpt lat="-13.537118" lon="-71.904772">
<ele>3294.4</ele>
<time>2025-02-06T15:01:50.515Z</time>
</trkpt>
<trkpt lat="-13.537116" lon="-71.904767">
<ele>3294.4</ele>
<time>2025-02-06T15:01:53.515Z</time>
</trkpt>
<trkpt lat="-13.537115" lon="-71.904764">
<ele>3294</ele>
<time>2025-02-06T15:01:56.514Z</time>
</trkpt>
<trkpt lat="-13.537115" lon="-71.904761">
<ele>3294</ele>
<time>2025-02-06T15:01:59.515Z</time>
</trkpt>
<trkpt lat="-13.537115" lon="-71.904761">
<ele>3294.1</ele>
<time>2025-02-06T15:02:02.515Z</time>
</trkpt>
<trkpt lat="-13.537115" lon="-71.904761">
<ele>3294.1</ele>
<time>2025-02-06T15:02:05.515Z</time>
</trkpt>
<trkpt lat="-13.537116" lon="-71.904761">
<ele>3294.1</ele>
<time>2025-02-06T15:02:08.514Z</time>
</trkpt>
<trkpt lat="-13.537115" lon="-71.904762">
<ele>3294.1</ele>
<time>2025-02-06T15:02:11.515Z</time>
</trkpt>
<trkpt lat="-13.537124" lon="-71.904768">
<ele>3294.1</ele>
<time>2025-02-06T15:02:14.515Z</time>
</trkpt>
<trkpt lat="-13.53713" lon="-71.904773">
<ele>3294.1</ele>
<time>2025-02-06T15:02:17.346Z</time>
</trkpt>
<trkpt lat="-13.537132" lon="-71.904775">
<ele>3294</ele>
<time>2025-02-06T15:02:20.515Z</time>
</trkpt>
<trkpt lat="-13.537131" lon="-71.904774">
<ele>3294</ele>
<time>2025-02-06T15:02:23.514Z</time>
</trkpt>
<trkpt lat="-13.537138" lon="-71.904773">
<ele>3294</ele>
<time>2025-02-06T15:02:26.515Z</time>
</trkpt>
<trkpt lat="-13.537137" lon="-71.904771">
<ele>3294</ele>
<time>2025-02-06T15:02:29.515Z</time>
</trkpt>
<trkpt lat="-13.537141" lon="-71.904772">
<ele>3294.4</ele>
<time>2025-02-06T15:02:32.515Z</time>
</trkpt>
<trkpt lat="-13.537142" lon="-71.904774">
<ele>3294.1</ele>
<time>2025-02-06T15:02:35.514Z</time>
</trkpt>
<trkpt lat="-13.537142" lon="-71.904773">
<ele>3294.1</ele>
<time>2025-02-06T15:02:38.515Z</time>
</trkpt>
<trkpt lat="-13.537131" lon="-71.904757">
<ele>3294.1</ele>
<time>2025-02-06T15:02:41.515Z</time>
</trkpt>
<trkpt lat="-13.53713" lon="-71.904757">
<ele>3294.1</ele>
<time>2025-02-06T15:02:44.515Z</time>
</trkpt>
<trkpt lat="-13.537131" lon="-71.904757">
<ele>3294.1</ele>
<time>2025-02-06T15:02:47.515Z</time>
</trkpt>
<trkpt lat="-13.537129" lon="-71.904758">
<ele>3294.1</ele>
<time>2025-02-06T15:02:50.515Z</time>
</trkpt>
<trkpt lat="-13.537128" lon="-71.904758">
<ele>3294.1</ele>
<time>2025-02-06T15:02:53.514Z</time>
</trkpt>
<trkpt lat="-13.537128" lon="-71.904758">
<ele>3294.1</ele>
<time>2025-02-06T15:02:56.514Z</time>
</trkpt>
<trkpt lat="-13.537129" lon="-71.904758">
<ele>3294.1</ele>
<time>2025-02-06T15:02:59.515Z</time>
</trkpt>
<trkpt lat="-13.537129" lon="-71.904758">
<ele>3294.1</ele>
<time>2025-02-06T15:03:02.515Z</time>
</trkpt>
<trkpt lat="-13.53713" lon="-71.904759">
<ele>3294.1</ele>
<time>2025-02-06T15:03:05.515Z</time>
</trkpt>
<trkpt lat="-13.537131" lon="-71.904759">
<ele>3294.1</ele>
<time>2025-02-06T15:03:08.515Z</time>
</trkpt>
<trkpt lat="-13.537131" lon="-71.904759">
<ele>3294.1</ele>
<time>2025-02-06T15:03:10.515Z</time>
</trkpt>
<trkpt lat="-13.537148" lon="-71.904773">
<ele>3294.1</ele>
<time>2025-02-06T15:03:11.515Z</time>
</trkpt>
<trkpt lat="-13.537148" lon="-71.904774">
<ele>3294.1</ele>
<time>2025-02-06T15:03:12.514Z</time>
</trkpt>
<trkpt lat="-13.537147" lon="-71.904773">
<ele>3294.1</ele>
<time>2025-02-06T15:03:13.515Z</time>
</trkpt>
<trkpt lat="-13.537146" lon="-71.904772">
<ele>3294.1</ele>
<time>2025-02-06T15:03:14.515Z</time>
</trkpt>
<trkpt lat="-13.537145" lon="-71.904771">
<ele>3294.1</ele>
<time>2025-02-06T15:03:15.515Z</time>
</trkpt>
<trkpt lat="-13.537144" lon="-71.904771">
<ele>3294.1</ele>
<time>2025-02-06T15:03:16.514Z</time>
</trkpt>
<trkpt lat="-13.537145" lon="-71.904773">
<ele>3294.1</ele>
<time>2025-02-06T15:03:17.513Z</time>
</trkpt>
<trkpt lat="-13.537145" lon="-71.904773">
<ele>3294.1</ele>
<time>2025-02-06T15:03:18.514Z</time>
</trkpt>
<trkpt lat="-13.537144" lon="-71.904772">
<ele>3294.1</ele>
<time>2025-02-06T15:03:19.514Z</time>
</trkpt>
<trkpt lat="-13.537146" lon="-71.904774">
<ele>3294.4</ele>
<time>2025-02-06T15:03:23.433Z</time>
</trkpt>
<trkpt lat="-13.537142" lon="-71.904772">
<ele>3294.4</ele>
<time>2025-02-06T15:03:26.514Z</time>
</trkpt>
<trkpt lat="-13.53714" lon="-71.904769">
<ele>3294.4</ele>
<time>2025-02-06T15:03:29.512Z</time>
</trkpt>
<trkpt lat="-13.537141" lon="-71.904768">
<ele>3293.8</ele>
<time>2025-02-06T15:03:32.514Z</time>
</trkpt>
<trkpt lat="-13.537129" lon="-71.904748">
<ele>3294</ele>
<time>2025-02-06T15:03:35.514Z</time>
</trkpt>
<trkpt lat="-13.537128" lon="-71.904747">
<ele>3294</ele>
<time>2025-02-06T15:03:38.513Z</time>
</trkpt>
<trkpt lat="-13.537128" lon="-71.904747">
<ele>3294.4</ele>
<time>2025-02-06T15:03:41.514Z</time>
</trkpt>
<trkpt lat="-13.537128" lon="-71.904747">
<ele>3294.4</ele>
<time>2025-02-06T15:03:44.514Z</time>
</trkpt>
<trkpt lat="-13.537128" lon="-71.904747">
<ele>3294.1</ele>
<time>2025-02-06T15:03:47.514Z</time>
</trkpt>
<trkpt lat="-13.537128" lon="-71.904747">
<ele>3294.4</ele>
<time>2025-02-06T15:03:50.514Z</time>
</trkpt>
<trkpt lat="-13.537127" lon="-71.904747">
<ele>3294.4</ele>
<time>2025-02-06T15:03:53.514Z</time>
</trkpt>
<trkpt lat="-13.537138" lon="-71.904753">
<ele>3294</ele>
<time>2025-02-06T15:03:56.514Z</time>
</trkpt>
<trkpt lat="-13.537132" lon="-71.904748">
<ele>3294</ele>
<time>2025-02-06T15:03:59.513Z</time>
</trkpt>
<trkpt lat="-13.537135" lon="-71.904751">
<ele>3293.8</ele>
<time>2025-02-06T15:04:02.514Z</time>
</trkpt>
<trkpt lat="-13.537137" lon="-71.904754">
<ele>3293.7</ele>
<time>2025-02-06T15:04:05.514Z</time>
</trkpt>
<trkpt lat="-13.537137" lon="-71.904755">
<ele>3293.7</ele>
<time>2025-02-06T15:04:08.514Z</time>
</trkpt>
<trkpt lat="-13.537138" lon="-71.904757">
<ele>3294.1</ele>
<time>2025-02-06T15:04:11.514Z</time>
</trkpt>
<trkpt lat="-13.537137" lon="-71.904755">
<ele>3294.1</ele>
<time>2025-02-06T15:04:14.514Z</time>
</trkpt>
<trkpt lat="-13.537125" lon="-71.904744">
<ele>3293.8</ele>
<time>2025-02-06T15:04:17.514Z</time>
</trkpt>
<trkpt lat="-13.537124" lon="-71.904744">
<ele>3294.1</ele>
<time>2025-02-06T15:04:20.514Z</time>
</trkpt>
<trkpt lat="-13.537124" lon="-71.904744">
<ele>3294.1</ele>
<time>2025-02-06T15:04:23.514Z</time>
</trkpt>
<trkpt lat="-13.537123" lon="-71.904744">
<ele>3293.8</ele>
<time>2025-02-06T15:04:26.514Z</time>
</trkpt>
<trkpt lat="-13.537122" lon="-71.904743">
<ele>3293.8</ele>
<time>2025-02-06T15:04:29.513Z</time>
</trkpt>
<trkpt lat="-13.537122" lon="-71.904743">
<ele>3294.1</ele>
<time>2025-02-06T15:04:32.514Z</time>
</trkpt>
<trkpt lat="-13.537122" lon="-71.904743">
<ele>3309.4</ele>
<time>2025-02-06T15:04:35.514Z</time>
</trkpt>
<trkpt lat="-13.537121" lon="-71.904743">
<ele>3309.4</ele>
<time>2025-02-06T15:04:38.514Z</time>
</trkpt>
<trkpt lat="-13.537121" lon="-71.904743">
<ele>3294</ele>
<time>2025-02-06T15:04:41.514Z</time>
</trkpt>
<trkpt lat="-13.537121" lon="-71.904742">
<ele>3294</ele>
<time>2025-02-06T15:04:44.514Z</time>
</trkpt>
<trkpt lat="-13.53712" lon="-71.904742">
<ele>3294.1</ele>
<time>2025-02-06T15:04:47.514Z</time>
</trkpt>
<trkpt lat="-13.53712" lon="-71.904742">
<ele>3294.1</ele>
<time>2025-02-06T15:04:50.514Z</time>
</trkpt>
<trkpt lat="-13.537122" lon="-71.904742">
<ele>3294.1</ele>
<time>2025-02-06T15:04:53.513Z</time>
</trkpt>
<trkpt lat="-13.537122" lon="-71.904742">
<ele>3294</ele>
<time>2025-02-06T15:04:56.514Z</time>
</trkpt>
<trkpt lat="-13.537122" lon="-71.904742">
<ele>3294</ele>
<time>2025-02-06T15:04:59.514Z</time>
</trkpt>
<trkpt lat="-13.537121" lon="-71.904739">
<ele>3294.1</ele>
<time>2025-02-06T15:05:02.513Z</time>
</trkpt>
<trkpt lat="-13.53712" lon="-71.904738">
<ele>3309.9</ele>
<time>2025-02-06T15:05:05.513Z</time>
</trkpt>
<trkpt lat="-13.53712" lon="-71.904738">
<ele>3309.9</ele>
<time>2025-02-06T15:05:08.513Z</time>
</trkpt>
<trkpt lat="-13.53712" lon="-71.904738">
<ele>3294</ele>
<time>2025-02-06T15:05:11.514Z</time>
</trkpt>
<trkpt lat="-13.53712" lon="-71.904739">
<ele>3294</ele>
<time>2025-02-06T15:05:14.514Z</time>
</trkpt>
<trkpt lat="-13.53712" lon="-71.904739">
<ele>3309.8</ele>
<time>2025-02-06T15:05:17.514Z</time>
</trkpt>
<trkpt lat="-13.53712" lon="-71.904739">
<ele>3293.8</ele>
<time>2025-02-06T15:05:20.514Z</time>
</trkpt>
<trkpt lat="-13.53712" lon="-71.904739">
<ele>3293.8</ele>
<time>2025-02-06T15:05:23.514Z</time>
</trkpt>
<trkpt lat="-13.537121" lon="-71.904739">
<ele>3309.8</ele>
<time>2025-02-06T15:05:26.514Z</time>
</trkpt>
<trkpt lat="-13.537121" lon="-71.904739">
<ele>3309.8</ele>
<time>2025-02-06T15:05:29.514Z</time>
</trkpt>
<trkpt lat="-13.537121" lon="-71.904739">
<ele>3309.8</ele>
<time>2025-02-06T15:05:32.514Z</time>
</trkpt>
<trkpt lat="-13.53712" lon="-71.904738">
<ele>3309.8</ele>
<time>2025-02-06T15:05:35.514Z</time>
</trkpt>
<trkpt lat="-13.53712" lon="-71.904738">
<ele>3309.8</ele>
<time>2025-02-06T15:05:38.514Z</time>
</trkpt>
<trkpt lat="-13.53712" lon="-71.904738">
<ele>3309.8</ele>
<time>2025-02-06T15:05:41.514Z</time>
</trkpt>
<trkpt lat="-13.53712" lon="-71.904738">
<ele>3309.8</ele>
<time>2025-02-06T15:05:44.513Z</time>
</trkpt>
<trkpt lat="-13.53712" lon="-71.904738">
<ele>3294.4</ele>
<time>2025-02-06T15:05:47.514Z</time>
</trkpt>
<trkpt lat="-13.53712" lon="-71.904738">
<ele>3294.1</ele>
<time>2025-02-06T15:05:50.513Z</time>
</trkpt>
<trkpt lat="-13.53712" lon="-71.904738">
<ele>3294.1</ele>
<time>2025-02-06T15:05:53.514Z</time>
</trkpt>
<trkpt lat="-13.53712" lon="-71.904738">
<ele>3294.1</ele>
<time>2025-02-06T15:05:56.514Z</time>
</trkpt>
<trkpt lat="-13.53712" lon="-71.904738">
<ele>3294.1</ele>
<time>2025-02-06T15:05:59.514Z</time>
</trkpt>
<trkpt lat="-13.53712" lon="-71.904738">
<ele>3294.1</ele>
<time>2025-02-06T15:06:02.514Z</time>
</trkpt>
<trkpt lat="-13.53712" lon="-71.904738">
<ele>3294.1</ele>
<time>2025-02-06T15:06:05.514Z</time>
</trkpt>
<trkpt lat="-13.53712" lon="-71.904738">
<ele>3294.1</ele>
<time>2025-02-06T15:06:08.514Z</time>
</trkpt>
<trkpt lat="-13.53712" lon="-71.904738">
<ele>3294.1</ele>
<time>2025-02-06T15:06:11.513Z</time>
</trkpt>
<trkpt lat="-13.53712" lon="-71.904738">
<ele>3294.1</ele>
<time>2025-02-06T15:06:14.514Z</time>
</trkpt>
<trkpt lat="-13.53712" lon="-71.904738">
<ele>3294.1</ele>
<time>2025-02-06T15:06:17.514Z</time>
</trkpt>
<trkpt lat="-13.53712" lon="-71.904737">
<ele>3294.1</ele>
<time>2025-02-06T15:06:20.513Z</time>
</trkpt>
<trkpt lat="-13.53712" lon="-71.904737">
<ele>3294.1</ele>
<time>2025-02-06T15:06:23.514Z</time>
</trkpt>
<trkpt lat="-13.53712" lon="-71.904737">
<ele>3294.1</ele>
<time>2025-02-06T15:06:26.514Z</time>
</trkpt>
<trkpt lat="-13.53712" lon="-71.904737">
<ele>3294.1</ele>
<time>2025-02-06T15:06:29.514Z</time>
</trkpt>
<trkpt lat="-13.53712" lon="-71.904737">
<ele>3293.8</ele>
<time>2025-02-06T15:06:32.514Z</time>
</trkpt>
<trkpt lat="-13.53712" lon="-71.904737">
<ele>3294.1</ele>
<time>2025-02-06T15:06:35.514Z</time>
</trkpt>
<trkpt lat="-13.53712" lon="-71.904737">
<ele>3294.1</ele>
<time>2025-02-06T15:06:38.514Z</time>
</trkpt>
<trkpt lat="-13.53712" lon="-71.904737">
<ele>3294.1</ele>
<time>2025-02-06T15:06:41.513Z</time>
</trkpt>
<trkpt lat="-13.53712" lon="-71.904737">
<ele>3294.1</ele>
<time>2025-02-06T15:06:44.514Z</time>
</trkpt>
<trkpt lat="-13.53712" lon="-71.904737">
<ele>3294</ele>
<time>2025-02-06T15:06:47.514Z</time>
</trkpt>
<trkpt lat="-13.53712" lon="-71.904738">
<ele>3294</ele>
<time>2025-02-06T15:06:50.514Z</time>
</trkpt>
<trkpt lat="-13.53712" lon="-71.904738">
<ele>3294</ele>
<time>2025-02-06T15:06:53.514Z</time>
</trkpt>
<trkpt lat="-13.53712" lon="-71.904738">
<ele>3294</ele>
<time>2025-02-06T15:06:56.514Z</time>
</trkpt>
<trkpt lat="-13.53712" lon="-71.904738">
<ele>3294</ele>
<time>2025-02-06T15:06:59.514Z</time>
</trkpt>
<trkpt lat="-13.53712" lon="-71.904738">
<ele>3294.1</ele>
<time>2025-02-06T15:07:02.514Z</time>
</trkpt>
<trkpt lat="-13.53712" lon="-71.904737">
<ele>3294</ele>
<time>2025-02-06T15:07:05.514Z</time>
</trkpt>
<trkpt lat="-13.53712" lon="-71.904737">
<ele>3294</ele>
<time>2025-02-06T15:07:08.514Z</time>
</trkpt>
<trkpt lat="-13.53712" lon="-71.904737">
<ele>3294.1</ele>
<time>2025-02-06T15:07:11.514Z</time>
</trkpt>
<trkpt lat="-13.53712" lon="-71.904737">
<ele>3294.1</ele>
<time>2025-02-06T15:07:14.514Z</time>
</trkpt>
<trkpt lat="-13.53712" lon="-71.904737">
<ele>3294.1</ele>
<time>2025-02-06T15:07:17.514Z</time>
</trkpt>
<trkpt lat="-13.53712" lon="-71.904737">
<ele>3294</ele>
<time>2025-02-06T15:07:20.512Z</time>
</trkpt>
<trkpt lat="-13.53712" lon="-71.904737">
<ele>3294</ele>
<time>2025-02-06T15:07:23.514Z</time>
</trkpt>
<trkpt lat="-13.53712" lon="-71.904737">
<ele>3294</ele>
<time>2025-02-06T15:07:26.514Z</time>
</trkpt>
<trkpt lat="-13.53712" lon="-71.904737">
<ele>3294</ele>
<time>2025-02-06T15:07:29.513Z</time>
</trkpt>
<trkpt lat="-13.53712" lon="-71.904737">
<ele>3294</ele>
<time>2025-02-06T15:07:32.514Z</time>
</trkpt>
<trkpt lat="-13.53712" lon="-71.904737">
<ele>3294</ele>
<time>2025-02-06T15:07:35.514Z</time>
</trkpt>
<trkpt lat="-13.53712" lon="-71.904737">
<ele>3294</ele>
<time>2025-02-06T15:07:38.514Z</time>
</trkpt>
<trkpt lat="-13.53712" lon="-71.904737">
<ele>3294</ele>
<time>2025-02-06T15:07:41.514Z</time>
</trkpt>
<trkpt lat="-13.53712" lon="-71.904737">
<ele>3294</ele>
<time>2025-02-06T15:07:44.514Z</time>
</trkpt>
<trkpt lat="-13.53712" lon="-71.904737">
<ele>3294.1</ele>
<time>2025-02-06T15:07:47.514Z</time>
</trkpt>
<trkpt lat="-13.53712" lon="-71.904737">
<ele>3294</ele>
<time>2025-02-06T15:07:50.513Z</time>
</trkpt>
<trkpt lat="-13.537119" lon="-71.904737">
<ele>3294</ele>
<time>2025-02-06T15:07:53.513Z</time>
</trkpt>
<trkpt lat="-13.537119" lon="-71.904737">
<ele>3294.1</ele>
<time>2025-02-06T15:07:56.514Z</time>
</trkpt>
<trkpt lat="-13.537119" lon="-71.904737">
<ele>3294.1</ele>
<time>2025-02-06T15:07:59.513Z</time>
</trkpt>
<trkpt lat="-13.537119" lon="-71.904737">
<ele>3294.1</ele>
<time>2025-02-06T15:08:02.514Z</time>
</trkpt>
<trkpt lat="-13.537119" lon="-71.904738">
<ele>3294.4</ele>
<time>2025-02-06T15:08:05.514Z</time>
</trkpt>
<trkpt lat="-13.537119" lon="-71.904738">
<ele>3294.4</ele>
<time>2025-02-06T15:08:08.514Z</time>
</trkpt>
<trkpt lat="-13.537119" lon="-71.904738">
<ele>3310</ele>
<time>2025-02-06T15:08:11.513Z</time>
</trkpt>
<trkpt lat="-13.537119" lon="-71.904738">
<ele>3310</ele>
<time>2025-02-06T15:08:14.514Z</time>
</trkpt>
<trkpt lat="-13.53712" lon="-71.904738">
<ele>3310.1</ele>
<time>2025-02-06T15:08:17.514Z</time>
</trkpt>
<trkpt lat="-13.53712" lon="-71.904738">
<ele>3294</ele>
<time>2025-02-06T15:08:20.514Z</time>
</trkpt>
<trkpt lat="-13.53712" lon="-71.904738">
<ele>3294</ele>
<time>2025-02-06T15:08:23.514Z</time>
</trkpt>
<trkpt lat="-13.53712" lon="-71.904738">
<ele>3294.1</ele>
<time>2025-02-06T15:08:26.514Z</time>
</trkpt>
<trkpt lat="-13.53712" lon="-71.904738">
<ele>3294.1</ele>
<time>2025-02-06T15:08:29.514Z</time>
</trkpt>
<trkpt lat="-13.53712" lon="-71.904738">
<ele>3310.1</ele>
<time>2025-02-06T15:08:32.514Z</time>
</trkpt>
<trkpt lat="-13.53712" lon="-71.904738">
<ele>3310.1</ele>
<time>2025-02-06T15:08:35.514Z</time>
</trkpt>
<trkpt lat="-13.53712" lon="-71.904738">
<ele>3310.1</ele>
<time>2025-02-06T15:08:38.514Z</time>
</trkpt>
<trkpt lat="-13.53712" lon="-71.904738">
<ele>3310.1</ele>
<time>2025-02-06T15:08:41.514Z</time>
</trkpt>
<trkpt lat="-13.53712" lon="-71.904738">
<ele>3310.1</ele>
<time>2025-02-06T15:08:44.514Z</time>
</trkpt>
<trkpt lat="-13.53712" lon="-71.904738">
<ele>3294.1</ele>
<time>2025-02-06T15:08:47.514Z</time>
</trkpt>
<trkpt lat="-13.53712" lon="-71.904738">
<ele>3294.1</ele>
<time>2025-02-06T15:08:50.514Z</time>
</trkpt>
<trkpt lat="-13.53712" lon="-71.904738">
<ele>3294.4</ele>
<time>2025-02-06T15:08:53.514Z</time>
</trkpt>
<trkpt lat="-13.53712" lon="-71.904738">
<ele>3293.8</ele>
<time>2025-02-06T15:08:56.514Z</time>
</trkpt>
<trkpt lat="-13.53712" lon="-71.904738">
<ele>3293.8</ele>
<time>2025-02-06T15:08:59.514Z</time>
</trkpt>
<trkpt lat="-13.53712" lon="-71.904738">
<ele>3294</ele>
<time>2025-02-06T15:09:02.513Z</time>
</trkpt>
<trkpt lat="-13.53712" lon="-71.904738">
<ele>3294.1</ele>
<time>2025-02-06T15:09:05.514Z</time>
</trkpt>
<trkpt lat="-13.537119" lon="-71.904737">
<ele>3294.1</ele>
<time>2025-02-06T15:09:08.513Z</time>
</trkpt>
<trkpt lat="-13.53712" lon="-71.90474">
<ele>3294.1</ele>
<time>2025-02-06T15:09:11.514Z</time>
</trkpt>
<trkpt lat="-13.537132" lon="-71.904751">
<ele>3294.1</ele>
<time>2025-02-06T15:09:14.408Z</time>
</trkpt>
<trkpt lat="-13.537144" lon="-71.904767">
<ele>3294.1</ele>
<time>2025-02-06T15:09:17.157Z</time>
</trkpt>
<trkpt lat="-13.537136" lon="-71.904757">
<ele>3294.1</ele>
<time>2025-02-06T15:09:20.358Z</time>
</trkpt>
<trkpt lat="-13.537149" lon="-71.904764">
<ele>3294.4</ele>
<time>2025-02-06T15:09:23.413Z</time>
</trkpt>
<trkpt lat="-13.537151" lon="-71.90476">
<ele>3294.1</ele>
<time>2025-02-06T15:09:26.278Z</time>
</trkpt>
<trkpt lat="-13.537139" lon="-71.904746">
<ele>3294.1</ele>
<time>2025-02-06T15:09:29.149Z</time>
</trkpt>
<trkpt lat="-13.537108" lon="-71.904744">
<ele>3294.4</ele>
<time>2025-02-06T15:09:31.909Z</time>
</trkpt>
<trkpt lat="-13.53709" lon="-71.904734">
<ele>3294.4</ele>
<time>2025-02-06T15:09:35.420Z</time>
</trkpt>
<trkpt lat="-13.537076" lon="-71.904729">
<ele>3294.4</ele>
<time>2025-02-06T15:09:38.211Z</time>
</trkpt>
<trkpt lat="-13.537066" lon="-71.904728">
<ele>3305.7</ele>
<time>2025-02-06T15:09:41.514Z</time>
</trkpt>
<trkpt lat="-13.537065" lon="-71.904726">
<ele>3305.6</ele>
<time>2025-02-06T15:09:44.514Z</time>
</trkpt>
<trkpt lat="-13.537066" lon="-71.904733">
<ele>3294.4</ele>
<time>2025-02-06T15:09:47.514Z</time>
</trkpt>
<trkpt lat="-13.537058" lon="-71.904731">
<ele>3294.4</ele>
<time>2025-02-06T15:09:50.514Z</time>
</trkpt>
<trkpt lat="-13.537078" lon="-71.904737">
<ele>3294.4</ele>
<time>2025-02-06T15:09:53.514Z</time>
</trkpt>
<trkpt lat="-13.537078" lon="-71.904739">
<ele>3294.4</ele>
<time>2025-02-06T15:09:56.513Z</time>
</trkpt>
<trkpt lat="-13.537076" lon="-71.904736">
<ele>3294.4</ele>
<time>2025-02-06T15:09:59.514Z</time>
</trkpt>
<trkpt lat="-13.537074" lon="-71.904738">
<ele>3294.4</ele>
<time>2025-02-06T15:10:02.513Z</time>
</trkpt>
<trkpt lat="-13.537071" lon="-71.904738">
<ele>3294.4</ele>
<time>2025-02-06T15:10:05.514Z</time>
</trkpt>
<trkpt lat="-13.537068" lon="-71.90474">
<ele>3294.4</ele>
<time>2025-02-06T15:10:08.514Z</time>
</trkpt>
<trkpt lat="-13.537067" lon="-71.904742">
<ele>3294.4</ele>
<time>2025-02-06T15:10:11.514Z</time>
</trkpt>
<trkpt lat="-13.537044" lon="-71.904734">
<ele>3294.4</ele>
<time>2025-02-06T15:10:14.513Z</time>
</trkpt>
<trkpt lat="-13.53704" lon="-71.904732">
<ele>3294.4</ele>
<time>2025-02-06T15:10:17.514Z</time>
</trkpt>
<trkpt lat="-13.53704" lon="-71.904732">
<ele>3294.4</ele>
<time>2025-02-06T15:10:20.514Z</time>
</trkpt>
<trkpt lat="-13.53704" lon="-71.904732">
<ele>3294.4</ele>
<time>2025-02-06T15:10:23.514Z</time>
</trkpt>
<trkpt lat="-13.53704" lon="-71.904732">
<ele>3294.4</ele>
<time>2025-02-06T15:10:26.514Z</time>
</trkpt>
<trkpt lat="-13.53704" lon="-71.904732">
<ele>3294.4</ele>
<time>2025-02-06T15:10:29.514Z</time>
</trkpt>
<trkpt lat="-13.53704" lon="-71.904732">
<ele>3294.4</ele>
<time>2025-02-06T15:10:32.513Z</time>
</trkpt>
<trkpt lat="-13.53704" lon="-71.904732">
<ele>3294.4</ele>
<time>2025-02-06T15:10:35.514Z</time>
</trkpt>
<trkpt lat="-13.53704" lon="-71.904732">
<ele>3294.4</ele>
<time>2025-02-06T15:10:38.514Z</time>
</trkpt>
<trkpt lat="-13.53704" lon="-71.904732">
<ele>3294.4</ele>
<time>2025-02-06T15:10:41.514Z</time>
</trkpt>
<trkpt lat="-13.53704" lon="-71.904732">
<ele>3294.4</ele>
<time>2025-02-06T15:10:44.514Z</time>
</trkpt>
<trkpt lat="-13.53704" lon="-71.904732">
<ele>3294.1</ele>
<time>2025-02-06T15:10:47.514Z</time>
</trkpt>
<trkpt lat="-13.53704" lon="-71.904732">
<ele>3294.1</ele>
<time>2025-02-06T15:10:50.513Z</time>
</trkpt>
<trkpt lat="-13.53704" lon="-71.904732">
<ele>3294.4</ele>
<time>2025-02-06T15:10:53.514Z</time>
</trkpt>
<trkpt lat="-13.53704" lon="-71.904732">
<ele>3294.4</ele>
<time>2025-02-06T15:10:56.514Z</time>
</trkpt>
<trkpt lat="-13.53704" lon="-71.904732">
<ele>3294.4</ele>
<time>2025-02-06T15:10:59.513Z</time>
</trkpt>
<trkpt lat="-13.53704" lon="-71.904732">
<ele>3294.4</ele>
<time>2025-02-06T15:11:02.513Z</time>
</trkpt>
<trkpt lat="-13.53704" lon="-71.904732">
<ele>3294.4</ele>
<time>2025-02-06T15:11:05.514Z</time>
</trkpt>
<trkpt lat="-13.53704" lon="-71.904732">
<ele>3294.4</ele>
<time>2025-02-06T15:11:08.514Z</time>
</trkpt>
<trkpt lat="-13.53704" lon="-71.904732">
<ele>3294.4</ele>
<time>2025-02-06T15:11:11.514Z</time>
</trkpt>
<trkpt lat="-13.53704" lon="-71.904732">
<ele>3294.4</ele>
<time>2025-02-06T15:11:14.514Z</time>
</trkpt>
<trkpt lat="-13.53704" lon="-71.904732">
<ele>3294.4</ele>
<time>2025-02-06T15:11:17.513Z</time>
</trkpt>
<trkpt lat="-13.53704" lon="-71.904732">
<ele>3294.4</ele>
<time>2025-02-06T15:11:20.513Z</time>
</trkpt>
<trkpt lat="-13.53704" lon="-71.904732">
<ele>3294.4</ele>
<time>2025-02-06T15:11:23.513Z</time>
</trkpt>
<trkpt lat="-13.53704" lon="-71.904732">
<ele>3294.4</ele>
<time>2025-02-06T15:11:26.514Z</time>
</trkpt>
<trkpt lat="-13.53704" lon="-71.904732">
<ele>3294.4</ele>
<time>2025-02-06T15:11:29.513Z</time>
</trkpt>
<trkpt lat="-13.53704" lon="-71.904732">
<ele>3294.4</ele>
<time>2025-02-06T15:11:32.514Z</time>
</trkpt>
<trkpt lat="-13.53704" lon="-71.904732">
<ele>3294.4</ele>
<time>2025-02-06T15:11:35.514Z</time>
</trkpt>
<trkpt lat="-13.53704" lon="-71.904732">
<ele>3294.7</ele>
<time>2025-02-06T15:11:38.514Z</time>
</trkpt>
<trkpt lat="-13.53704" lon="-71.904732">
<ele>3294.4</ele>
<time>2025-02-06T15:11:41.513Z</time>
</trkpt>
<trkpt lat="-13.53704" lon="-71.904732">
<ele>3294.4</ele>
<time>2025-02-06T15:11:44.513Z</time>
</trkpt>
<trkpt lat="-13.53704" lon="-71.904732">
<ele>3294.9</ele>
<time>2025-02-06T15:11:47.513Z</time>
</trkpt>
<trkpt lat="-13.53704" lon="-71.904732">
<ele>3294.9</ele>
<time>2025-02-06T15:11:50.514Z</time>
</trkpt>
<trkpt lat="-13.53704" lon="-71.904732">
<ele>3294.4</ele>
<time>2025-02-06T15:11:53.514Z</time>
</trkpt>
<trkpt lat="-13.53704" lon="-71.904732">
<ele>3294.4</ele>
<time>2025-02-06T15:11:56.514Z</time>
</trkpt>
<trkpt lat="-13.53704" lon="-71.904732">
<ele>3294.4</ele>
<time>2025-02-06T15:11:59.514Z</time>
</trkpt>
<trkpt lat="-13.53704" lon="-71.904732">
<ele>3294.4</ele>
<time>2025-02-06T15:12:02.514Z</time>
</trkpt>
<trkpt lat="-13.53704" lon="-71.904732">
<ele>3294.4</ele>
<time>2025-02-06T15:12:05.514Z</time>
</trkpt>
<trkpt lat="-13.53704" lon="-71.904732">
<ele>3294.4</ele>
<time>2025-02-06T15:12:08.512Z</time>
</trkpt>
<trkpt lat="-13.53704" lon="-71.904732">
<ele>3294.4</ele>
<time>2025-02-06T15:12:11.514Z</time>
</trkpt>
<trkpt lat="-13.53704" lon="-71.904732">
<ele>3294.4</ele>
<time>2025-02-06T15:12:14.514Z</time>
</trkpt>
<trkpt lat="-13.53704" lon="-71.904732">
<ele>3294.9</ele>
<time>2025-02-06T15:12:17.514Z</time>
</trkpt>
<trkpt lat="-13.53704" lon="-71.904732">
<ele>3294.9</ele>
<time>2025-02-06T15:12:20.514Z</time>
</trkpt>
<trkpt lat="-13.537041" lon="-71.904735">
<ele>3294.9</ele>
<time>2025-02-06T15:12:23.513Z</time>
</trkpt>
<trkpt lat="-13.537072" lon="-71.904753">
<ele>3294.4</ele>
<time>2025-02-06T15:12:26.267Z</time>
</trkpt>
<trkpt lat="-13.537055" lon="-71.904743">
<ele>3294.4</ele>
<time>2025-02-06T15:12:29.333Z</time>
</trkpt>
<trkpt lat="-13.537088" lon="-71.904747">
<ele>3294.4</ele>
<time>2025-02-06T15:12:32.458Z</time>
</trkpt>
<trkpt lat="-13.537108" lon="-71.904765">
<ele>3294.4</ele>
<time>2025-02-06T15:12:35.514Z</time>
</trkpt>
<trkpt lat="-13.537118" lon="-71.904771">
<ele>3294.4</ele>
<time>2025-02-06T15:12:38.514Z</time>
</trkpt>
<trkpt lat="-13.537124" lon="-71.904769">
<ele>3294.4</ele>
<time>2025-02-06T15:12:41.514Z</time>
</trkpt>
<trkpt lat="-13.537124" lon="-71.90477">
<ele>3294.4</ele>
<time>2025-02-06T15:12:44.514Z</time>
</trkpt>
<trkpt lat="-13.537125" lon="-71.904768">
<ele>3294.4</ele>
<time>2025-02-06T15:12:47.514Z</time>
</trkpt>
<trkpt lat="-13.537126" lon="-71.904768">
<ele>3294.4</ele>
<time>2025-02-06T15:12:50.514Z</time>
</trkpt>
<trkpt lat="-13.53713" lon="-71.904769">
<ele>3294.9</ele>
<time>2025-02-06T15:12:53.535Z</time>
</trkpt>
<trkpt lat="-13.537129" lon="-71.904768">
<ele>3294.9</ele>
<time>2025-02-06T15:12:56.563Z</time>
</trkpt>
<trkpt lat="-13.537128" lon="-71.904768">
<ele>3294.1</ele>
<time>2025-02-06T15:12:59.437Z</time>
</trkpt>
<trkpt lat="-13.537115" lon="-71.904757">
<ele>3294.1</ele>
<time>2025-02-06T15:13:02.514Z</time>
</trkpt>
<trkpt lat="-13.537115" lon="-71.904757">
<ele>3294.1</ele>
<time>2025-02-06T15:13:05.512Z</time>
</trkpt>
<trkpt lat="-13.537125" lon="-71.904772">
<ele>3294.7</ele>
<time>2025-02-06T15:13:08.586Z</time>
</trkpt>
<trkpt lat="-13.537124" lon="-71.904772">
<ele>3294.7</ele>
<time>2025-02-06T15:13:11.513Z</time>
</trkpt>
<trkpt lat="-13.537124" lon="-71.904775">
<ele>3294.4</ele>
<time>2025-02-06T15:13:14.515Z</time>
</trkpt>
<trkpt lat="-13.537124" lon="-71.904776">
<ele>3294.4</ele>
<time>2025-02-06T15:13:17.531Z</time>
</trkpt>
<trkpt lat="-13.537123" lon="-71.904773">
<ele>3294.4</ele>
<time>2025-02-06T15:13:20.514Z</time>
</trkpt>
<trkpt lat="-13.537124" lon="-71.904776">
<ele>3294.1</ele>
<time>2025-02-06T15:13:23.519Z</time>
</trkpt>
<trkpt lat="-13.537121" lon="-71.904773">
<ele>3294.1</ele>
<time>2025-02-06T15:13:26.514Z</time>
</trkpt>
<trkpt lat="-13.537112" lon="-71.904761">
<ele>3294.1</ele>
<time>2025-02-06T15:13:29.514Z</time>
</trkpt>
<trkpt lat="-13.537111" lon="-71.90476">
<ele>3294.1</ele>
<time>2025-02-06T15:13:32.514Z</time>
</trkpt>
<trkpt lat="-13.537111" lon="-71.90476">
<ele>3294.1</ele>
<time>2025-02-06T15:13:35.513Z</time>
</trkpt>
<trkpt lat="-13.537111" lon="-71.90476">
<ele>3294.4</ele>
<time>2025-02-06T15:13:38.513Z</time>
</trkpt>
<trkpt lat="-13.537108" lon="-71.90476">
<ele>3294.4</ele>
<time>2025-02-06T15:13:41.513Z</time>
</trkpt>
<trkpt lat="-13.537112" lon="-71.904773">
<ele>3294.4</ele>
<time>2025-02-06T15:13:44.514Z</time>
</trkpt>
<trkpt lat="-13.537119" lon="-71.904773">
<ele>3294.4</ele>
<time>2025-02-06T15:13:47.514Z</time>
</trkpt>
<trkpt lat="-13.537124" lon="-71.904773">
<ele>3305</ele>
<time>2025-02-06T15:13:50.514Z</time>
</trkpt>
<trkpt lat="-13.537123" lon="-71.904773">
<ele>3305.1</ele>
<time>2025-02-06T15:13:53.514Z</time>
</trkpt>
<trkpt lat="-13.537121" lon="-71.90477">
<ele>3305.5</ele>
<time>2025-02-06T15:13:56.514Z</time>
</trkpt>
<trkpt lat="-13.53712" lon="-71.904768">
<ele>3294.1</ele>
<time>2025-02-06T15:13:59.514Z</time>
</trkpt>
<trkpt lat="-13.537118" lon="-71.904767">
<ele>3294.1</ele>
<time>2025-02-06T15:14:02.514Z</time>
</trkpt>
<trkpt lat="-13.537129" lon="-71.904772">
<ele>3294.4</ele>
<time>2025-02-06T15:14:05.514Z</time>
</trkpt>
<trkpt lat="-13.537115" lon="-71.904772">
<ele>3294.4</ele>
<time>2025-02-06T15:14:08.514Z</time>
</trkpt>
<trkpt lat="-13.537114" lon="-71.904772">
<ele>3294.1</ele>
<time>2025-02-06T15:14:11.514Z</time>
</trkpt>
<trkpt lat="-13.537146" lon="-71.904776">
<ele>3294.1</ele>
<time>2025-02-06T15:14:14.277Z</time>
</trkpt>
<trkpt lat="-13.537144" lon="-71.904776">
<ele>3294.1</ele>
<time>2025-02-06T15:14:15.099Z</time>
</trkpt>
<trkpt lat="-13.537141" lon="-71.904774">
<ele>3294.1</ele>
<time>2025-02-06T15:14:18.515Z</time>
</trkpt>
<trkpt lat="-13.53714" lon="-71.904778">
<ele>3294.1</ele>
<time>2025-02-06T15:14:21.514Z</time>
</trkpt>
<trkpt lat="-13.537139" lon="-71.904777">
<ele>3294.1</ele>
<time>2025-02-06T15:14:24.514Z</time>
</trkpt>
<trkpt lat="-13.537136" lon="-71.90478">
<ele>3294.7</ele>
<time>2025-02-06T15:14:27.514Z</time>
</trkpt>
<trkpt lat="-13.537134" lon="-71.90478">
<ele>3294.7</ele>
<time>2025-02-06T15:14:30.514Z</time>
</trkpt>
<trkpt lat="-13.537133" lon="-71.904784">
<ele>3294.1</ele>
<time>2025-02-06T15:14:33.519Z</time>
</trkpt>
<trkpt lat="-13.537134" lon="-71.904781">
<ele>3294.4</ele>
<time>2025-02-06T15:14:36.513Z</time>
</trkpt>
<trkpt lat="-13.537122" lon="-71.904779">
<ele>3294.4</ele>
<time>2025-02-06T15:14:39.514Z</time>
</trkpt>
<trkpt lat="-13.537122" lon="-71.904782">
<ele>3294.4</ele>
<time>2025-02-06T15:14:42.514Z</time>
</trkpt>
<trkpt lat="-13.537108" lon="-71.904796">
<ele>3294.4</ele>
<time>2025-02-06T15:14:45.513Z</time>
</trkpt>
<trkpt lat="-13.537085" lon="-71.904784">
<ele>3294.4</ele>
<time>2025-02-06T15:14:48.514Z</time>
</trkpt>
<trkpt lat="-13.537108" lon="-71.904787">
<ele>3294.1</ele>
<time>2025-02-06T15:14:51.218Z</time>
</trkpt>
<trkpt lat="-13.537089" lon="-71.904822">
<ele>3294.1</ele>
<time>2025-02-06T15:14:54.293Z</time>
</trkpt>
<trkpt lat="-13.537161" lon="-71.904856">
<ele>3294.1</ele>
<time>2025-02-06T15:14:57.520Z</time>
</trkpt>
<trkpt lat="-13.537228" lon="-71.904848">
<ele>3294</ele>
<time>2025-02-06T15:15:00.514Z</time>
</trkpt>
<trkpt lat="-13.537256" lon="-71.90485">
<ele>3294</ele>
<time>2025-02-06T15:15:03.514Z</time>
</trkpt>
<trkpt lat="-13.537277" lon="-71.904854">
<ele>3294</ele>
<time>2025-02-06T15:15:06.393Z</time>
</trkpt>
<trkpt lat="-13.537289" lon="-71.90486">
<ele>3294</ele>
<time>2025-02-06T15:15:09.135Z</time>
</trkpt>
<trkpt lat="-13.537303" lon="-71.904868">
<ele>3294</ele>
<time>2025-02-06T15:15:12.295Z</time>
</trkpt>
<trkpt lat="-13.537335" lon="-71.90488">
<ele>3292.9</ele>
<time>2025-02-06T15:15:15.589Z</time>
</trkpt>
<trkpt lat="-13.537358" lon="-71.904893">
<ele>3292.9</ele>
<time>2025-02-06T15:15:18.599Z</time>
</trkpt>
<trkpt lat="-13.53735" lon="-71.904891">
<ele>3292.9</ele>
<time>2025-02-06T15:15:21.514Z</time>
</trkpt>
<trkpt lat="-13.53735" lon="-71.904868">
<ele>3292.9</ele>
<time>2025-02-06T15:15:24.593Z</time>
</trkpt>
<trkpt lat="-13.537357" lon="-71.904856">
<ele>3292.9</ele>
<time>2025-02-06T15:15:27.596Z</time>
</trkpt>
<trkpt lat="-13.537395" lon="-71.90488">
<ele>3292.9</ele>
<time>2025-02-06T15:15:30.534Z</time>
</trkpt>
<trkpt lat="-13.53742" lon="-71.904876">
<ele>3294.2</ele>
<time>2025-02-06T15:15:33.593Z</time>
</trkpt>
<trkpt lat="-13.537438" lon="-71.904889">
<ele>3295.2</ele>
<time>2025-02-06T15:15:36.456Z</time>
</trkpt>
<trkpt lat="-13.537461" lon="-71.904924">
<ele>3295.6</ele>
<time>2025-02-06T15:15:39.588Z</time>
</trkpt>
<trkpt lat="-13.537482" lon="-71.90495">
<ele>3296.7</ele>
<time>2025-02-06T15:15:42.591Z</time>
</trkpt>
<trkpt lat="-13.537484" lon="-71.904947">
<ele>3293.1</ele>
<time>2025-02-06T15:15:45.514Z</time>
</trkpt>
<trkpt lat="-13.537471" lon="-71.904929">
<ele>3292.9</ele>
<time>2025-02-06T15:15:48.541Z</time>
</trkpt>
<trkpt lat="-13.537472" lon="-71.904936">
<ele>3292.9</ele>
<time>2025-02-06T15:15:51.514Z</time>
</trkpt>
<trkpt lat="-13.537468" lon="-71.904931">
<ele>3292.8</ele>
<time>2025-02-06T15:15:57.575Z</time>
</trkpt>
<trkpt lat="-13.537468" lon="-71.904932">
<ele>3292.8</ele>
<time>2025-02-06T15:16:00.514Z</time>
</trkpt>
<trkpt lat="-13.537484" lon="-71.904972">
<ele>3292.8</ele>
<time>2025-02-06T15:16:03.514Z</time>
</trkpt>
<trkpt lat="-13.53749" lon="-71.90498">
<ele>3292.8</ele>
<time>2025-02-06T15:16:06.514Z</time>
</trkpt>
<trkpt lat="-13.53747" lon="-71.904931">
<ele>3292.8</ele>
<time>2025-02-06T15:16:09.514Z</time>
</trkpt>
<trkpt lat="-13.537474" lon="-71.904934">
<ele>3292.8</ele>
<time>2025-02-06T15:16:12.539Z</time>
</trkpt>
<trkpt lat="-13.537474" lon="-71.904935">
<ele>3292.8</ele>
<time>2025-02-06T15:16:15.538Z</time>
</trkpt>
<trkpt lat="-13.537474" lon="-71.904934">
<ele>3292.8</ele>
<time>2025-02-06T15:16:18.412Z</time>
</trkpt>
<trkpt lat="-13.537484" lon="-71.904987">
<ele>3292.8</ele>
<time>2025-02-06T15:16:21.514Z</time>
</trkpt>
<trkpt lat="-13.537484" lon="-71.904988">
<ele>3292.8</ele>
<time>2025-02-06T15:16:24.514Z</time>
</trkpt>
<trkpt lat="-13.537483" lon="-71.904989">
<ele>3294.6</ele>
<time>2025-02-06T15:16:27.514Z</time>
</trkpt>
<trkpt lat="-13.537488" lon="-71.904981">
<ele>3295.2</ele>
<time>2025-02-06T15:16:30.513Z</time>
</trkpt>
<trkpt lat="-13.537492" lon="-71.904979">
<ele>3295</ele>
<time>2025-02-06T15:16:33.514Z</time>
</trkpt>
<trkpt lat="-13.537492" lon="-71.904978">
<ele>3292.8</ele>
<time>2025-02-06T15:16:36.514Z</time>
</trkpt>
<trkpt lat="-13.537492" lon="-71.904978">
<ele>3292.8</ele>
<time>2025-02-06T15:16:39.513Z</time>
</trkpt>
<trkpt lat="-13.537492" lon="-71.904978">
<ele>3292.6</ele>
<time>2025-02-06T15:16:42.513Z</time>
</trkpt>
<trkpt lat="-13.537492" lon="-71.904978">
<ele>3292.6</ele>
<time>2025-02-06T15:16:45.513Z</time>
</trkpt>
<trkpt lat="-13.537492" lon="-71.904978">
<ele>3292.6</ele>
<time>2025-02-06T15:16:48.513Z</time>
</trkpt>
<trkpt lat="-13.537492" lon="-71.904978">
<ele>3291.7</ele>
<time>2025-02-06T15:16:51.513Z</time>
</trkpt>
<trkpt lat="-13.537492" lon="-71.904978">
<ele>3291.7</ele>
<time>2025-02-06T15:16:54.513Z</time>
</trkpt>
<trkpt lat="-13.537492" lon="-71.904978">
<ele>3292.5</ele>
<time>2025-02-06T15:16:57.513Z</time>
</trkpt>
<trkpt lat="-13.537492" lon="-71.904978">
<ele>3292.8</ele>
<time>2025-02-06T15:17:00.512Z</time>
</trkpt>
<trkpt lat="-13.537492" lon="-71.904978">
<ele>3292.8</ele>
<time>2025-02-06T15:17:03.513Z</time>
</trkpt>
<trkpt lat="-13.537495" lon="-71.904977">
<ele>3292.8</ele>
<time>2025-02-06T15:17:06.513Z</time>
</trkpt>
<trkpt lat="-13.537495" lon="-71.904976">
<ele>3292.8</ele>
<time>2025-02-06T15:17:09.513Z</time>
</trkpt>
<trkpt lat="-13.537495" lon="-71.904976">
<ele>3292.8</ele>
<time>2025-02-06T15:17:12.513Z</time>
</trkpt>
<trkpt lat="-13.537495" lon="-71.904976">
<ele>3292.8</ele>
<time>2025-02-06T15:17:15.513Z</time>
</trkpt>
<trkpt lat="-13.537495" lon="-71.904976">
<ele>3292.8</ele>
<time>2025-02-06T15:17:18.513Z</time>
</trkpt>
<trkpt lat="-13.5375" lon="-71.904976">
<ele>3292.8</ele>
<time>2025-02-06T15:17:21.513Z</time>
</trkpt>
<trkpt lat="-13.53752" lon="-71.904998">
<ele>3292.8</ele>
<time>2025-02-06T15:17:24.513Z</time>
</trkpt>
<trkpt lat="-13.537547" lon="-71.905044">
<ele>3291.7</ele>
<time>2025-02-06T15:17:27.610Z</time>
</trkpt>
<trkpt lat="-13.537528" lon="-71.90501">
<ele>3291.7</ele>
<time>2025-02-06T15:17:30.590Z</time>
</trkpt>
<trkpt lat="-13.537541" lon="-71.905005">
<ele>3292.8</ele>
<time>2025-02-06T15:17:33.347Z</time>
</trkpt>
<trkpt lat="-13.537556" lon="-71.905009">
<ele>3292.8</ele>
<time>2025-02-06T15:17:36.576Z</time>
</trkpt>
<trkpt lat="-13.537567" lon="-71.905015">
<ele>3292.8</ele>
<time>2025-02-06T15:17:39.321Z</time>
</trkpt>
<trkpt lat="-13.537553" lon="-71.90503">
<ele>3292.8</ele>
<time>2025-02-06T15:17:42.596Z</time>
</trkpt>
<trkpt lat="-13.537548" lon="-71.905036">
<ele>3292.8</ele>
<time>2025-02-06T15:17:45.352Z</time>
</trkpt>
<trkpt lat="-13.537548" lon="-71.905034">
<ele>3292.8</ele>
<time>2025-02-06T15:17:48.513Z</time>
</trkpt>
<trkpt lat="-13.537545" lon="-71.905034">
<ele>3296.3</ele>
<time>2025-02-06T15:17:51.592Z</time>
</trkpt>
<trkpt lat="-13.537528" lon="-71.905043">
<ele>3292.5</ele>
<time>2025-02-06T15:17:54.585Z</time>
</trkpt>
<trkpt lat="-13.537523" lon="-71.905042">
<ele>3291.9</ele>
<time>2025-02-06T15:17:57.411Z</time>
</trkpt>
<trkpt lat="-13.537514" lon="-71.90504">
<ele>3291.8</ele>
<time>2025-02-06T15:18:00.641Z</time>
</trkpt>
<trkpt lat="-13.537507" lon="-71.905039">
<ele>3291.8</ele>
<time>2025-02-06T15:18:03.538Z</time>
</trkpt>
<trkpt lat="-13.537504" lon="-71.905039">
<ele>3291.9</ele>
<time>2025-02-06T15:18:06.570Z</time>
</trkpt>
<trkpt lat="-13.537503" lon="-71.905039">
<ele>3292.3</ele>
<time>2025-02-06T15:18:09.530Z</time>
</trkpt>
<trkpt lat="-13.537501" lon="-71.905038">
<ele>3291.9</ele>
<time>2025-02-06T15:18:12.513Z</time>
</trkpt>
<trkpt lat="-13.537501" lon="-71.905038">
<ele>3291.9</ele>
<time>2025-02-06T15:18:15.671Z</time>
</trkpt>
<trkpt lat="-13.537499" lon="-71.905037">
<ele>3292</ele>
<time>2025-02-06T15:18:18.513Z</time>
</trkpt>
<trkpt lat="-13.537496" lon="-71.905035">
<ele>3291.6</ele>
<time>2025-02-06T15:18:24.532Z</time>
</trkpt>
<trkpt lat="-13.537478" lon="-71.90504">
<ele>3291.6</ele>
<time>2025-02-06T15:18:27.513Z</time>
</trkpt>
<trkpt lat="-13.537475" lon="-71.905041">
<ele>3292</ele>
<time>2025-02-06T15:18:30.513Z</time>
</trkpt>
<trkpt lat="-13.537475" lon="-71.905042">
<ele>3292.1</ele>
<time>2025-02-06T15:18:33.512Z</time>
</trkpt>
<trkpt lat="-13.537475" lon="-71.905042">
<ele>3291.6</ele>
<time>2025-02-06T15:18:36.513Z</time>
</trkpt>
<trkpt lat="-13.537475" lon="-71.905042">
<ele>3291.6</ele>
<time>2025-02-06T15:18:39.513Z</time>
</trkpt>
<trkpt lat="-13.537475" lon="-71.905042">
<ele>3291.6</ele>
<time>2025-02-06T15:18:42.513Z</time>
</trkpt>
<trkpt lat="-13.537475" lon="-71.905043">
<ele>3292.2</ele>
<time>2025-02-06T15:18:45.513Z</time>
</trkpt>
<trkpt lat="-13.537475" lon="-71.905043">
<ele>3292.2</ele>
<time>2025-02-06T15:18:48.513Z</time>
</trkpt>
<trkpt lat="-13.537475" lon="-71.905043">
<ele>3292.3</ele>
<time>2025-02-06T15:18:51.513Z</time>
</trkpt>
<trkpt lat="-13.537475" lon="-71.905044">
<ele>3292.3</ele>
<time>2025-02-06T15:18:54.513Z</time>
</trkpt>
<trkpt lat="-13.537475" lon="-71.905044">
<ele>3292.3</ele>
<time>2025-02-06T15:18:57.513Z</time>
</trkpt>
<trkpt lat="-13.537475" lon="-71.905044">
<ele>3292.3</ele>
<time>2025-02-06T15:19:00.513Z</time>
</trkpt>
<trkpt lat="-13.537475" lon="-71.905045">
<ele>3292.4</ele>
<time>2025-02-06T15:19:03.513Z</time>
</trkpt>
<trkpt lat="-13.537475" lon="-71.905045">
<ele>3292.4</ele>
<time>2025-02-06T15:19:06.513Z</time>
</trkpt>
<trkpt lat="-13.537475" lon="-71.905045">
<ele>3292.4</ele>
<time>2025-02-06T15:19:09.513Z</time>
</trkpt>
<trkpt lat="-13.537475" lon="-71.905045">
<ele>3292.5</ele>
<time>2025-02-06T15:19:12.513Z</time>
</trkpt>
<trkpt lat="-13.537475" lon="-71.905045">
<ele>3291.6</ele>
<time>2025-02-06T15:19:15.513Z</time>
</trkpt>
<trkpt lat="-13.537475" lon="-71.905045">
<ele>3291.6</ele>
<time>2025-02-06T15:19:18.512Z</time>
</trkpt>
<trkpt lat="-13.537475" lon="-71.905045">
<ele>3291.6</ele>
<time>2025-02-06T15:19:21.513Z</time>
</trkpt>
<trkpt lat="-13.537475" lon="-71.905045">
<ele>3291.6</ele>
<time>2025-02-06T15:19:24.513Z</time>
</trkpt>
<trkpt lat="-13.537475" lon="-71.905046">
<ele>3291.6</ele>
<time>2025-02-06T15:19:27.512Z</time>
</trkpt>
<trkpt lat="-13.537475" lon="-71.905046">
<ele>3291.6</ele>
<time>2025-02-06T15:19:30.513Z</time>
</trkpt>
<trkpt lat="-13.537475" lon="-71.905046">
<ele>3292.6</ele>
<time>2025-02-06T15:19:33.513Z</time>
</trkpt>
<trkpt lat="-13.537475" lon="-71.905046">
<ele>3292.6</ele>
<time>2025-02-06T15:19:36.513Z</time>
</trkpt>
<trkpt lat="-13.537475" lon="-71.905046">
<ele>3292.6</ele>
<time>2025-02-06T15:19:39.513Z</time>
</trkpt>
<trkpt lat="-13.537475" lon="-71.905046">
<ele>3291.6</ele>
<time>2025-02-06T15:19:42.513Z</time>
</trkpt>
<trkpt lat="-13.537475" lon="-71.905046">
<ele>3291.6</ele>
<time>2025-02-06T15:19:45.513Z</time>
</trkpt>
<trkpt lat="-13.53748" lon="-71.905046">
<ele>3292.8</ele>
<time>2025-02-06T15:19:48.513Z</time>
</trkpt>
<trkpt lat="-13.537489" lon="-71.905059">
<ele>3292.8</ele>
<time>2025-02-06T15:19:49.998Z</time>
</trkpt>
<trkpt lat="-13.537483" lon="-71.905044">
<ele>3292.8</ele>
<time>2025-02-06T15:19:51.513Z</time>
</trkpt>
<trkpt lat="-13.537479" lon="-71.905049">
<ele>3293.2</ele>
<time>2025-02-06T15:19:52.513Z</time>
</trkpt>
<trkpt lat="-13.537478" lon="-71.90505">
<ele>3293.1</ele>
<time>2025-02-06T15:19:53.513Z</time>
</trkpt>
<trkpt lat="-13.537478" lon="-71.90505">
<ele>3293.1</ele>
<time>2025-02-06T15:19:54.513Z</time>
</trkpt>
<trkpt lat="-13.537478" lon="-71.90505">
<ele>3293.1</ele>
<time>2025-02-06T15:19:55.513Z</time>
</trkpt>
<trkpt lat="-13.537478" lon="-71.90505">
<ele>3293.1</ele>
<time>2025-02-06T15:19:56.513Z</time>
</trkpt>
<trkpt lat="-13.537478" lon="-71.90505">
<ele>3293.1</ele>
<time>2025-02-06T15:19:57.513Z</time>
</trkpt>
<trkpt lat="-13.537478" lon="-71.90505">
<ele>3293.1</ele>
<time>2025-02-06T15:19:58.513Z</time>
</trkpt>
<trkpt lat="-13.537478" lon="-71.90505">
<ele>3293.1</ele>
<time>2025-02-06T15:19:59.512Z</time>
</trkpt>
<trkpt lat="-13.537478" lon="-71.90505">
<ele>3293.1</ele>
<time>2025-02-06T15:20:00.513Z</time>
</trkpt>
<trkpt lat="-13.537478" lon="-71.90505">
<ele>3293.1</ele>
<time>2025-02-06T15:20:01.513Z</time>
</trkpt>
<trkpt lat="-13.537478" lon="-71.90505">
<ele>3293.1</ele>
<time>2025-02-06T15:20:02.513Z</time>
</trkpt>
<trkpt lat="-13.537478" lon="-71.90505">
<ele>3293.1</ele>
<time>2025-02-06T15:20:03.513Z</time>
</trkpt>
<trkpt lat="-13.537478" lon="-71.90505">
<ele>3293.1</ele>
<time>2025-02-06T15:20:04.513Z</time>
</trkpt>
<trkpt lat="-13.537478" lon="-71.90505">
<ele>3293.1</ele>
<time>2025-02-06T15:20:05.513Z</time>
</trkpt>
<trkpt lat="-13.537478" lon="-71.90505">
<ele>3293.1</ele>
<time>2025-02-06T15:20:06.513Z</time>
</trkpt>
<trkpt lat="-13.537478" lon="-71.90505">
<ele>3293.1</ele>
<time>2025-02-06T15:20:07.513Z</time>
</trkpt>
<trkpt lat="-13.537478" lon="-71.90505">
<ele>3293.1</ele>
<time>2025-02-06T15:20:08.513Z</time>
</trkpt>
<trkpt lat="-13.537478" lon="-71.90505">
<ele>3293.1</ele>
<time>2025-02-06T15:20:09.513Z</time>
</trkpt>
</trkseg>
</trk>
</gpx>
